name,address1,address2,address3,borough_name,website,os_addressbase_uprn,borough_code,ward_2022_name,ward_2022_code,latitude,longitude,easting,northing
John Hinds Framing,Studio 10,3-5 Latona Road,,Southwark,http://www.johnhindsframing.com,10091666155,E09000028,Old Kent Road,E05011109,51.48143469,-0.069517234,534147.6495,177597.6235
Paye Stonework and Restoration Ltd,Stationmasters House,Mottingham Station Approach ,,Greenwich,https://paye.net/portfolio/,10010196896,E09000011,"Mottingham, Coldharbour & New Eltham",E05014086,51.43933094,0.051949385,542712.6581,173145.1384
Matter SFX,20B Rigg Approach,,,Waltham Forest,http://www.mattersfx.com/,1.00023E+11,E09000031,Lea Bridge,E05013895,51.56686882,-0.037759488,536097.8498,187156.629
AB Fine Art Foundry,1 Fawe Street,,,Tower Hamlets,https://www.abfineart.com,6068859,E09000030,Lansbury,E05009325,51.51712858,-0.013976255,537896.261,181669.9197
J.D. McDougall Ltd,4 McGrath Road,,,Newham,http://www.mcdougall.co.uk/,46255499,E09000025,Forest Gate South,E05013912,51.54601463,0.014122057,539757.2738,184935.3662
Capital Models Limited,"Studio 8, The Hangar","Perseverance Works,",38 Kingsland Road,Tower Hamlets,https://www.capitalmodels.co.uk,10008244014,E09000030,Weavers,E05009335,51.5276102,-0.076215457,533547.5442,182720.1316
Studio Meno Ltd,Napier Works,Napier Road,,Newham,https://www.studiomeno.com,10008994852,E09000025,Wall End,E05013926,51.53024383,0.063548175,543233.7199,183277.2401
Kemp London ,32 Shackwell Lane,,,Hackney,http://www.kemplondon.com/,1.00023E+11,E09000012,Dalston,E05009370,51.55035077,-0.071029366,533840.5886,185258.4414
James Hoyle and Son,48-50 Andrews Road,Cambridge Heath,,Tower Hamlets,http://www.jameshoyleandson.co.uk,10008299117,E09000030,St Peter's,E05009331,51.53382424,-0.056543454,534893.6745,183447.2646
The Holmes Wood Consultancy Limited,1 Monkwell Square,,,City of London,http://www.holmes-wood.com,2E+11,E09000001,Bassishaw,E05009290,51.51767422,-0.092970856,532414.155,181584.786
DeGross Design & Innovation,Office 17,"11th Floor, Wembley Point",1 Harrow Road,Brent,https://www.degross.co.uk,202206446,E09000005,Stonebridge,E05013510,51.54410801,-0.272328803,519901.0563,184215.3507
Maison Henry Bertrand,13-15 Station Road,,,Barnet,https://www.maisonhenrybertrand.com,10093298811,E09000003,Finchley Church End,E05013639,51.59999267,-0.191458643,525354.7724,190565.4045
Furnells,Unit 5 Crusader Industrial Estate,167 Hermitage Road,,Haringey,https://www.furnells.com,10003976593,E09000014,Hermitage & Gardens,E05013591,51.57622742,-0.089852527,532460.498,188101.6938
Machine Shop Special Effects,180 Acton Lane,,,Ealing,http://www.machineshop.co.uk/contact/,202136775,E09000009,North Acton,E05013527,51.5335341,-0.259707946,520804.1635,183060.2269
PSB Vision ,4-6 Canfield Place,,,Camden,http://www.psbvision.com/lighting,5083630,E09000007,South Hampstead,E05013670,51.54644504,-0.179478325,526332.7363,184631.319
London Stone Carving,52 Ossory Road,,,Southwark,https://www.londonstonecarving.com,2.00003E+11,E09000028,Old Kent Road,E05011109,51.4830924,-0.069692091,534130.6488,177781.6398
Axion Furniture Makers,Unit 12 Elizabeth Trading Estate,Juno Way,,Lewisham,http://www.axionfurniture.co.uk,10093391211,E09000023,New Cross Gate,E05013728,51.48219844,-0.042894815,535993.8641,177731.6573
Purpose Powder Coatings,18 Manor Grove,,,Southwark,http://www.purposepowdercoatings.com/index.php,2.00003E+11,E09000028,Old Kent Road,E05011109,51.48157375,-0.053450904,535262.7824,177642.6416
Flux Metal,25 Hatcham Road,,,Southwark,http://fluxmetal.co.uk,10013524422,E09000028,Old Kent Road,E05011109,51.48186015,-0.053366686,535267.7828,177674.6446
Weber Industries,Studio 11G,90  Haymerle Road,,Southwark,https://weberindustries.com/,2.00003E+11,E09000028,Old Kent Road,E05011109,51.48198003,-0.068226639,534235.6605,177660.6301
Steeldeck,Unit 58 Marchant Estate,42-72 Verney Road,,Southwark,https://www.steeldeck.co.uk/,10000813686,E09000028,Old Kent Road,E05011109,51.48491421,-0.058019081,534935.7423,178005.6699
Jamm Print and Production Ltd,Commonwealth Buildings,1a Woolwich Church Street,,Greenwich,https://www.jamm.co.uk/index.shtml,10010244186,E09000011,Woolwich Dockyard,E05014094,51.49247685,0.049290201,542362.4509,179049.7702
Helix 3D Ltd,The Old Turbine Factory,138-140  Nathan Way,,Greenwich,https://helix3d.co.uk/,1.00023E+11,E09000011,Plumstead & Glyndon,E05014087,51.49446801,0.101439427,545976.0114,179373.8346
South London Foundry (Wrightson & Platt Ltd),36-37 Brockley Cross Business Centre,96 Endwell Road,,Lewisham,https://www.southlondonfoundry.co.uk,10094267184,E09000023,Telegraph Hill,E05013732,51.46477466,-0.038413787,536356.9208,175802.4878
London Bronze Casting,Parkside Business Estate,Rolt Street,,Lewisham,http://www.londonbronzecasting.com,No UPRN,E09000023,Deptford,E05013719,51.48263867,-0.035875438,536479.9172,177793.67
Arch Bronze Ltd,Arch 23-24  Winthrope Road,,,Wandsworth,http://www.archbronze.com,121005781,E09000032,Thamesfield,E05014022,51.46185738,-0.208431397,524555.5624,175175.4382
Creatives Inc. (UK) Limited,11A Streatham Common South ,,,Lambeth,https://www.creativesinc.com,1.00022E+11,E09000022,Streatham Common & Vale,E05014112,51.41993954,-0.123462715,530577.1489,170661.9306
FBFX Limited,Unit 4 Vector Park,Forest Road,,Hounslow,https://www.fbfx.co.uk,10091689757,E09000018,Hanworth Park,E05013615,51.44030077,-0.400484116,511266.9641,172469.3866
Mistral Models,Long Lane Farm,Long Lane,,Hillingdon,http://mistralmodels.com,No UPRN,E09000017,Ickenham & South Harefield,E05013573,51.55559322,-0.4412505,508160.7657,185229.537
James Mansfield Timber,Unit F Uxbridge Depot,Eskdale Road Ind. Estate,,Hillingdon,http://www.jamesmansfieldtimber.co.uk,No UPRN,E09000017,Uxbridge,E05013580,51.53785474,-0.492561154,504644.3215,183182.2941
Adam Dawe Design Limited,33 St Charles Square,,,Kensington and Chelsea,http://www.adamdawedesign.co.uk,217080087,E09000020,St. Helen's,E05009404,51.51942594,-0.212631056,524107.5188,181570.0444
The Whitewall Company,The Old Cannon Factory,10A Europa Estate Fraser Road,,Bexley,http://thewhitewall.co.uk,1.00024E+11,E09000004,Erith,E05011225,51.48254702,0.172223312,550928.6596,178191.6915
The Mill,11-14 Windmill Street,,,Camden,www.themill.com,5110528,E09000007,Bloomsbury,E05013653,51.51813729,-0.132243965,529688.132,181566.0124
Fox Umbrellas Limited,240A Wickham Road,,,Croydon,https://www.foxumbrellas.com,1.00023E+11,E09000008,Shirley South,E05011483,51.37404183,-0.045744127,536116.7956,165699.4411
Othe Fabrications Ltd.,Studio 5,19 Warburton Road,,Hackney,https://otherfabrications.com/,10008343892,E09000012,London Fields,E05009381,51.539198,-0.057663472,534800.1282,184042.7813
Framework Framing,"Art Hub Studios, First Floor",Building 28,Westminster Indust,Greenwich,http://www.frameworkframing.com/,1.00023E+11,E09000011,Charlton Village & Riverside,E05014075,51.494566,0.039885959,541703.1746,179263.8439
TDC Cordless Lighting (c/o The Classic Prop Hire Co L,International Trading Estate,Unit 8 Trident Way,London,Ealing,https://www.tdccordlesslighting.com/,12021676,E09000009,Southall Green,E05013538,51.49992,-0.40147296,511053.5843,179097.868
Store Street Framing ,31 Store Street,,,Camden,https://www.storestreetframing.co.uk/,5164279,E09000007,Bloomsbury,E05013653,51.519802,-0.13132377,529747.2434,181752.7597
SE1 Picture Frames,Alaska Buildings,61 Grange Road,,Southwark,http://se1pictureframes.co.uk/,2.00003E+11,E09000028,London Bridge & West Bermondsey,E05011104,51.49499,-0.077248832,533571.2174,179090.843
Swordfish Works,"Studio 7 & 8, The Hangar",Perseverance Works,38 Kingsland Road,Hackney,https://swordfishworks.com/,No UPRN,E09000012,Hoxton East & Shoreditch,E05009377,51.52814,-0.07772,533441.6367,182776.3007
Cut and Construct,Unit 1 Imperial Works,Fountayne Road,,Haringey,http://cutandconstruct.com/,1.00023E+11,E09000014,South Tottenham,E05013599,51.584068,-0.06237603,534341.2629,189023.7371
CNC London,25 Gorst Road,Park Royal,,Ealing,https://www.cncserviceslondon.co.uk/,12117252,E09000009,North Acton,E05013527,51.527028,-0.2626919,520614.3953,182331.8102
Rule One Productions,"Unit 4, Enterprise Park",10 Argall Way,,Waltham Forest,https://www.ruleoneproductions.com/,1.00023E+11,E09000031,Lea Bridge,E05013895,51.567974,-0.035485584,536252.1339,187283.7537
Aldworth James & Bond,"Unit 305, 34-37",Parkside Business Estate,Rolt St,Lewisham,https://aldworthjamesandbond.co.uk/,No UPRN,E09000023,Evelyn,E05013721,51.48281,-0.03735,536377.0259,177809.9743
Jan Hendzel Studio,"TB-01, Unit 8",Harrington Way,,Greenwich,https://www.janhendzel.com/,1.00024E+11,E09000011,Charlton Village & Riverside,E05014075,51.494823,0.043254124,541936.1669,179298.9455
Advanced Fabrications Ltd,Unit 4 Boston Business Park,Trumpers Way,London,Ealing,https://www.advancedfabrications.com/film-tv/,12001326,E09000009,Hanwell Broadway,E05013525,51.49966,-0.33938637,515363.4985,179164.9024
Made Up Ltd,Gardner Industrial Estate,18/19 Kent House Lane,Beckenham,Bromley,https://madeupltd.com/fabrications/,1.00024E+11,E09000006,Penge & Cator,E05014002,51.423289,-0.038057586,536505.1946,171189.9913
Artplinth / London Art Workshop,London Art Workshop,Unit 19 Roxwell Trading Park,Argall Avenue,Waltham Forest,www.londonartworkshop.com/,1.00024E+11,E09000031,Lea Bridge,E05013895,51.570912,-0.037480201,536105.1499,187606.7562
London Glassblowing ,62-66 Bermondsey Street,NA,NA,Southwark,https://londonglassblowing.co.uk/,2.00003E+11,E09000028,London Bridge & West Bermondsey,E05011104,51.501615,-0.082574898,533182.2157,179817.841
Brett Manley Glass,"18, Stewkley House",2 Wadsworth Rd, Perivale,Ealing,https://www.brettmanley.co.uk/,12197963,E09000009,Perivale,E05013534,51.536201,-0.31765404,516778.4168,183262.8604
Angle Glass,"Studio 20, West London Art Factory",153 Dukes Road,NA,Ealing,https://angleglass.co.uk/r,12096649,E09000009,North Acton,E05013527,51.525619,-0.28302844,519207.4177,182141.8412
Sterling Studios,"Unit D, Trading Estate Road",Western Trading Estate,London,Ealing,https://www.sterling-studios.com/,12010802,E09000009,North Acton,E05013527,51.525977,-0.26822434,520233.402,182205.8418
Coriander Glass,27 Kingston Road,Wimbledon,,Merton,https://www.corianderstainedglass.co.uk/,48039322,E09000024,Abbey,E05013810,51.415671,-0.19406193,525680.2862,170064.0073
Hands On Glass,Unit 11 Crusader Industrial Estate,Hermitage Road,,Haringey,http://www.handsonglass.co.uk/hands_on_glass/home.html,No UPRN,E09000014,Hermitage & Gardens,E05013591,51.57744,-0.09119,532364.3055,188234.1146
"Jude Clark Studio, The London Stained Glass Company",4K Vanguard Court,Camberwell,London,Southwark,http://www.londonstainedglass.co.uk/,No UPRN,E09000028,St Giles,E05011115,51.47212,-0.08129,533357.3575,176540.3358
The Stained Glass Works,188 Archway Road,Highgate,,Haringey,www.thestainedglassworks.co.uk,1.00023E+11,E09000014,Highgate,E05013592,51.572955,-0.14027097,528976.2207,187647.6759
Lightlust Studio,Unit 16 Trinity Wharf Building,Harrington Way,,Greenwich,https://lightlust.co.uk/,No UPRN,E09000011,Charlton Village & Riverside,E05014075,51.49495,0.04418,542000.0385,179314.863
Metal Supermarkets,Units 10 & 11 Hanover West Industrial Estate,161 Acton Lane,Park Royal,Ealing,https://www.metalsupermarkets.co.uk/,12142674,E09000009,North Acton,E05013527,51.531967,-0.26406099,520506.392,182878.7908
Euro Sheet Metal,6 Aintree Road,London,,Ealing,https://www.eurosheetmetal.co.uk/,12078024,E09000009,Perivale,E05013534,51.537207,-0.3163048,516869.4138,183376.8834
Lasercut,12 Raymouth Road,London,,Southwark,http://lasercutworks.com/,2.00003E+11,E09000028,North Bermondsey,E05011106,51.491839,-0.058467112,534884.2008,178774.876
Surface Matter,29 Westgate Street,London,,Hackney,https://www.surfacematter.co.uk/,10008338161,E09000012,London Fields,E05009381,51.53747,-0.059193456,534699.1277,183847.8044
New North Press,45 Coronet Street,London,,Hackney,https://new-north-press.co.uk/,1.00023E+11,E09000012,Hoxton East & Shoreditch,E05009377,51.52707,-0.081851649,533158.1793,182649.7867
Cut Laser Cut,"Workshop 1, Artichoke Mews",Artichoke Place,Camberwell,Southwark,https://cutlasercut.com/,2.00003E+11,E09000028,St Giles,E05011115,51.474212,-0.090708104,532697.2201,176755.8619
FabPub,22 Gossamer Gardens,,,Tower Hamlets,https://fab.pub/,6716703,E09000030,St Peter's,E05009331,51.532807,-0.058915983,534732.1356,183329.7689
The Crucible Foundry,Units15a&b,Parsons Green Depot,33-39 Parsons Gree,Hammersmith and Fulham,www.cruciblefoundry.com,34106929,E09000013,Walham Green,E05013749,51.476617,-0.19895683,525173.3443,176832.8586
TUCH Design Ltd,Parkshot House,5 Kew Road,,Richmond upon Thames,tuchdesign.com,10024346680,E09000027,South Richmond,E05013786,51.46372,-0.30246964,518018.4392,175227.0451
The Silver Building (Projekt),"60 Dock road, London E16 1YZ",,,Newham,http://thesilverbuilding.com,10008985422,E09000025,Royal Victoria,E05013923,51.504762,0.017112899,540091.1371,180353.824
Cockpit,"Cockpit Yard, Northington Street, WC1N 2NP",,,Camden,https://cockpitstudios.org/contact/,5082549,E09000007,Holborn & Covent Garden,E05013662,51.521465,-0.11610588,530798.2273,181964.7511
FAB CUT DESIGN LTD,458 Rathgar Rd,Brixton,,Lambeth,https://www.fabcutdes.com/,1.00024E+11,E09000022,Herne Hill & Loughborough Junction,E05014104,51.466522,-0.1022447,531918.219,175879.9004
Made CNC,Unit 12 Leyton Studios, 15 Argall Avenue,Leyton,Waltham Forest,https://www.madecnc.co.uk/,10024421357,E09000031,Lea Bridge,E05013895,51.570217,-0.041117679,535855.1646,187522.7186
Chop Chop Laser,Unit 9 Domeview Yard,269 Tunnel Avenue,,Greenwich,https://www.chopchoplaser.co.uk/,10010266827,E09000011,Greenwich Peninsula,E05014082,51.49845,0.000308581,538944.1521,179619.9221
SEW IT IN LONDON,Londoneast - UK Business & Technical park,Yew Tree Avenue,,Barking and Dagenham,www.sewitinlondon.co.uk,100102787,E09000002,Alibon,E05014054,51.546911,0.17031859,550584.0763,185344.8429
