name,address1,address2,address3,borough_name,website,os_addressbase_uprn,borough_code,ward_2022_name,ward_2022_code,latitude,longitude,easting,northing
Admiral Duncan,54 Old Compton Street,,W1D 4UD,Westminster,http://www.admiral-duncan.co.uk,10033630960,E09000033,West End,E05013808,51.51288458,-0.132298646,529699.2536,180981.8084
Arch Clapham,"Arch 642, Voltaire Rd, London ",,SW4 6DH,Lambeth,,,E09000022,Clapham Town,E05014102,51.46499,-0.13086,529935.0433,175658.4163
Buker Bar (formerly East Bloc),217 City Road,Hoxton,EC1V 1JN,Hackney,http://eastbloc.co.uk,,E09000012,Hoxton West,E05009378,51.52835545,-0.091197444,532506.1916,182775.7623
Central Station (King's Cross),37 Wharfdale Road,,N1 9SD,Islington,,5300097072,E09000019,Caledonian,E05013700,51.53342314,-0.120456823,530462.2181,183286.7446
Circa,62 Frith Street,Soho,W1D 3JN,Westminster,http://www.circasoho.com/biography/,,E09000033,West End,E05013808,51.51432291,-0.132268639,529697.2515,181141.8053
Circa the Club ,Hungerford House,"Victoria Embankment
",WC2N 6PA,Westminster,,,E09000033,West End,E05013808,51.51483395,-0.133849342,529586.1267,181195.8359
CMYK,105-109 Broadway ,,SW19 1QG,Merton,,48112845,E09000024,Abbey,E05013810,51.4193181,-0.201184227,525175.0903,170457.39
Comptons of Soho,51-53 Old Compton Street,,W1D 6HN,Westminster,http://www.faucetinn.com/comptons/about/,,E09000033,West End,E05013808,51.51256542,-0.132585525,529680.2544,180945.8095
Dalston Superstore,117 Kingsland High Street,,E8 2PB,Hackney,http://dalstonsuperstore.com/,,E09000012,Dalston,E05009370,51.54946642,-0.075573014,533528.1648,185151.7912
Dome London,2A Dartmouth Park Hill,,NW5 1HL,Islington,,,E09000019,Junction,E05013707,51.56000894,-0.13847,529137.6593,186211.195
Duke of Wellington,77 Wardour Street,,W1D 6QA,Westminster,,,E09000033,West End,E05013808,51.51230637,-0.133259059,529634.2556,180915.8107
Eagle London,349 Kennington Lane,,SE11 5QY,Lambeth,,,E09000022,Vauxhall,E05014117,51.48620351,-0.119345654,530674.2661,178037.8648
Fire (including Lightbox and Protocol),39 (34-41) Parry Street; South Lambeth Road,Vauxhall; Vauxhall,SW8 1RT,Lambeth,http://firelondon.seetickets.com/promoter/circuit-clubbing/12825,,E09000022,Vauxhall,E05014117,51.48471939,-0.123814056,530368.2705,177864.87
Freedom,60-66 Wardour Street,Soho,W1F 0TA,Westminster,http://freedombarsoho.com/,,E09000033,West End,E05013808,51.51332916,-0.134985562,529511.5593,181026.4921
G-A-Y Bar,30 Old Compton Street,,W1D 4UR,Westminster,,,E09000033,West End,E05013808,51.51352179,-0.131090787,529781.2514,181054.8061
G-A-Y Late,5 Goslett Yard,,WC2H 0EA,Westminster,http://www.g-a-y.co.uk,10033624704,E09000033,West End,E05013808,51.51514631,-0.130894581,529790.2488,181235.8021
Gays the Word,66 Marchmont Street,,WC1N 1AB,Camden,http://www.gaystheword.co.uk,5069460,E09000007,Bloomsbury,E05013653,51.52608614,-0.126710655,530049.3826,182459.7427
"Glory, The ",281 Kingsland Road,,E2 8AS,Hackney,http://www.theglory.co,,E09000012,Hoxton East & Shoreditch,E05009377,51.53584125,-0.077128283,533460.1583,183633.7828
Halfway to Heaven,7 Duncannon Street,,WC2N 4JF,Westminster,,,E09000033,St James's,E05013806,51.50847428,-0.126412169,530120.2535,180501.8178
Heaven,11 The Arches,Villiers Street,WC2N 6NG,Westminster,,10033544602,E09000033,St James's,E05013806,51.50808696,-0.124122388,530280.2516,180462.8171
Karaoke Hole ,95 Kingsland High St,,E8 2PB,Hackney,,,E09000012,Dalston,E05009370,51.54937787,-0.075470621,533535.5226,185142.1313
King WIlliam IV,77 Hampstead High Street,,NW3 1RE,Camden,,5162725,E09000007,Hampstead Town,E05013659,51.55547212,-0.176254168,526531.2544,185640.7254
Ku Bar  (including Klub and Lounge),30 Lisle Street,,WC2H 7BA,Westminster,http://www.ku-bar.co.uk,10033629186,E09000033,St James's,E05013806,51.51177592,-0.129879608,529870.2525,180862.8102
Little Ku,25 Frith Street,Soho,WC1D 5LB,Westminster,http://www.ku-bar.co.uk,,E09000033,West End,E05013808,51.513083,-0.131034,529786.4383,181006.1129
New Bloomsbury Set,76 Marchmont Street,,WC1N 1AG,Camden,http://www.newbloomsburyset.net,5087665,E09000007,Bloomsbury,E05013653,51.52602239,-0.125518919,530132.2301,182454.7703
Queen Adelaide of Cambridge Heath ,483 Hackney Road,Bethnal Green,E2 9ED,Tower Hamlets,https://www.thequeenadelaide.com,6352542,E09000030,St Peter's,E05009331,51.53256251,-0.058782222,534742.1343,183302.827
Retro Bar,2 George Court,,WC2N 6HH,Westminster,http://www.retrobarlondon.co.uk,,E09000033,St James's,E05013806,51.50913079,-0.123603957,530313.2495,180579.8141
Rose and Crown ,1 Crooms Hill,Greenwich,SE10 8ER,Greenwich,,10010200404,E09000011,Greenwich Park,E05014081,51.47871233,-0.007712625,538447.2001,177409.922
Royal Vauxhall Tavern,372 Kennington Lane,Lambeth,SE11 5HY,Lambeth,,,E09000022,Vauxhall,E05014117,51.48652405,-0.11970696,530648.2665,178072.8649
Rupert Street,50 Rupert Street,(Winnett St),W1D 6DR,Westminster,http://www.rupert-street.com,,E09000033,West End,E05013808,51.51217569,-0.133523812,529616.256,180900.8104
She Soho,23a Old Compton Street,Soho,W1D 5JL,Westminster,http://she-soho.com,10033622688,E09000033,West End,E05013808,51.51320405,-0.130902024,529795.2516,181019.8076
Taco Queer,26 Loampit Hill,,SE13 7SW,Lewisham,,,E09000023,Ladywell,E05013725,51.46627677,-0.01968,537653.635,176004.5558
Ted's Place,305a North End Road,Fulham,W14 9NS,Hammersmith and Fulham,http://www.tedsplaceuk.co.uk,34117591,E09000013,West Kensington,E05013751,51.48589015,-0.202566804,524897.3676,177857.8991
The Apple Tree ,45 Mount Pleasant,,WC1X 0AE,Camden,,5037589,E09000007,Holborn & Covent Garden,E05013662,51.5234881,-0.112032362,531075.0121,182197.0022
The Bridge Bar,8 Voltaire Road,Clapham,SW4 6DH,Lambeth,http://www.bridgewinebar.com/#menu,,E09000022,Clapham Town,E05014102,51.46579362,-0.13361743,529741.2404,175742.8955
The Chateau,29-33 Camberwell Church St,, SE5 8TR,Southwark,,,E09000028,St Giles,E05011115,51.47401131,-0.090172219,532735.0168,176734.5162
The City of Quebec,12 Old Quebec Street,Marylebone,W1H 7AF,Westminster,,10033584576,E09000033,West End,E05013808,51.51404376,-0.157256541,527964.2793,181066.8153
The Cock Tavern ,340 Kennington Road,,SE11 4LD,Lambeth,,,E09000022,Kennington,E05014105,51.48640229,-0.11163793,531208.8131,178073.7423
The George & Dragon,2 Blackheath Hill,,SE10 8DE,Greenwich,http://www.georgedragon.com/,10010199835,E09000011,Greenwich Park,E05014081,51.47284598,-0.014952004,537962.2081,176743.9374
The King's Arms,23 Poland Street,,W1F 8QL,Westminster,,,E09000033,West End,E05013808,51.51521074,-0.137204693,529352.2557,181231.8048
The Two Brewers,114 Clapam High Street,,SW4 7UJ,Lambeth,www.the2brewers.com    http://london.gaycities.com/bars/2019-the-two-brewers,,E09000022,Clapham Town,E05014102,51.46317837,-0.134847041,529663.2364,175449.9
The Underground Club,37 Wharfdale Road,,N1 9SD,Islington,http://www.unskinnybop.co.uk/about,5300097072,E09000019,Caledonian,E05013700,51.53342314,-0.120456823,530462.2181,183286.7446
The White Swan,556 Commercial Road,,E14 7JD,Tower Hamlets,,6047411,E09000030,Shadwell,E05009332,51.5126047,-0.040203411,536090.1451,181117.8268
The Yard,57 Rupert Street,,W1D 7PL,Westminster,http://yardbar.co.uk/about/,10033587131,E09000033,West End,E05013808,51.51199339,-0.13393479,529588.2567,180879.8113
Union,66 Albert Embankment,,SE1 7TW,Lambeth,http://www.clubunion.co.uk,,E09000022,Vauxhall,E05014117,51.48795551,-0.123738831,530364.2713,178224.8641
Vault 139,139-143 Whitfield Street,,W1T 5EN,Camden,,,E09000007,Bloomsbury,E05013653,51.52381744,-0.138753672,529220.4281,182186.1464
VFD (Vogue Fabrics Dalston),66 Stoke Newington Road,,N16 7XB,Hackney,http://vfdalston.com,,E09000012,Shacklewell,E05009382,51.55264331,-0.074631157,533584.1741,185506.7878
Village,81 Wardour Street,,W1D 6QD,Westminster,http://www.village-soho.co.uk/venue-details/,10033570802,E09000033,West End,E05013808,51.51241627,-0.133384273,529625.2555,180927.8101
West 5 ,Popes Lane,South Ealing,W5 4NB,Ealing,http://www.west5ealing.co.uk/contact.html,12142998,E09000009,Northfield,E05013530,51.49878875,-0.302982363,517892.4647,179125.9453
Zodiac Bar,119 Hampstead Road,,NW1 3EE,Camden,,,E09000007,Regent's Park,E05013668,51.52823244,-0.13876,529207.4949,182677.0885
