name,address1,address2,address3,borough_name,website,os_addressbase_uprn,borough_code,ward_2022_name,ward_2022_code,latitude,longitude,easting,northing
Wembley Library,,,,Brent,,,E09000005,Wembley Park,E05013516,51.55840914,-0.27988313,519339.84750000015,185793.34940000065
Kilburn,,,,Brent,,202046410,E09000005,Queens Park,E05013507,51.53460692,-0.203802273,524678.5648999996,183273.20069999993
Bradmore Green,,,,Croydon,,200001206439,E09000008,Old Coulsdon,E05011474,51.30703271,-0.12240494,530972.108,158108.65410000086
Biggin Hill Memorial Library and Pool,,,,Bromley,,10070007971,E09000006,Biggin Hill,E05013989,51.31170065,0.036318182,542020.3836000003,158922.54580000043
Coulsdon,,,,Croydon,,100023534265,E09000008,Coulsdon Town,E05011466,51.31947203,-0.13709679,529913.0367999999,159465.8281999994
Purley,,,,Croydon,,200001215992,E09000008,Purley & Woodcote,E05011476,51.33861472,-0.117094012,531252.2061000001,161629.96059999987
Sanderstead,,,,Croydon,,200001205396,E09000008,Sanderstead,E05011478,51.34028969,-0.083955297,533555.4594999999,161875.96890000068
New Addington,,,,Croydon,,100023534498,E09000008,New Addington South,E05011471,51.34039632,-0.014765878,538374.0064000003,162015.88519999944
Selsdon,,,,Croydon,,10014054952,E09000008,Selsdon Vale & Forestdale,E05011481,51.34193161,-0.060767012,535165.6721999999,162100.98929999955
Library @ the Phoenix Centre,,,,Sutton,,5870113095,E09000029,South Beddington & Roundshaw,E05013763,51.35268985,-0.131684671,530196.1142999995,163169.1442000009
Wallington Library,,,,Sutton,,5870076858,E09000029,Wallington South,E05013771,51.35732129,-0.149222392,528961.9692000002,163653.23479999974
Cheam Library,,,,Sutton,,5870018019,E09000029,Cheam,E05013758,51.35957626,-0.215126355,524367.4117999999,163790.2776999995
Sutton Central Library,,,,Sutton,,5870113864,E09000029,Sutton Central,E05013765,51.36154844,-0.193586833,525861.5924000004,164046.31560000032
Hook and Chessington Library,,,,Kingston upon Thames,,10091803267,E09000021,Hook & Chessington North,E05013935,51.36739709,-0.30447708,518126.7494999999,164512.4416000005
Library @ Westcroft Centre,,,,Sutton,,5870122731,E09000029,Wallington North,E05013770,51.36742881,-0.156544791,528423.9084000001,164764.35089999996
Croydon central library,,,,Croydon,,100022917682,E09000008,Fairfield,E05011468,51.37138431,-0.097931813,532492.4013999999,165308.33520000055
Worcester Park Library,,,,Sutton,,5870109125,E09000029,Worcester Park North,E05013772,51.37753233,-0.239807077,522601.2576000001,165745.53030000068
Shirley,,,,Croydon,,100022908481,E09000008,Shirley South,E05011483,51.37465273,-0.043548174,536267.8069000002,165771.43920000084
West Wickham Library,,,,Bromley,,100022897598,E09000006,West Wickham,E05014008,51.37533193,-0.012306129,538440.0224000001,165905.34809999913
Library @ The Life Centre,,,,Sutton,,5870120544,E09000029,Sutton North,E05013766,51.37837931,-0.200253584,525351.5526999999,165906.52419999987
Tolworth Community Library,,,,Kingston upon Thames,,128002519,E09000021,Alexandra,E05013928,51.3805588,-0.28069395,519747.9628999997,166014.5730000008
Hayes Library,,,,Bromley,,100022891892,E09000006,Hayes & Coney Hall,E05013998,51.37686239,0.019678625,540661.3202,166136.31770000048
Orpington Library,,,,Bromley,,10070009943,E09000006,Orpington,E05014001,51.375607,0.102773528,546448.1007000003,166159.25809999928
Old Malden Library,,,,Kingston upon Thames,,128004320,E09000021,Old Malden,E05013942,51.38323859,-0.253314099,521646.1723999996,166357.59219999984
Ashburton,,,,Croydon,,10014052814,E09000008,Addiscombe East,E05011462,51.38255158,-0.061536706,534992.6738999998,166616.52419999987
The Circle Library,,,,Sutton,,5870120398,E09000029,St Helier East,E05013761,51.38506086,-0.172897523,527236.7643999998,166696.59899999946
Broad Green,,,,Croydon,,10000104509,E09000008,Broad Green,E05011465,51.38485402,-0.115555759,531227.2637999998,166774.52300000004
Surbiton Library,,,,Kingston upon Thames,,128006816,E09000021,Surbiton Hill,E05013944,51.39228094,-0.296326317,518629.8755000001,167292.69449999928
Southborough Library,,,,Bromley,,100022892170,E09000006,Bromley Common & Holwood,E05013990,51.38938336,0.044998489,542384.6043999996,167577.48409999907
Petts Wood Library,,,,Bromley,,100022897997,E09000006,Petts Wood & Knoll,E05014003,51.38948409,0.072531624,544299.8674999997,167642.4634000007
West Barnes Library,,,,Merton,,48085264,E09000024,West Barnes,E05013827,51.39463987,-0.237525903,522714.3057000004,167651.71600000001
New Malden Library,,,,Kingston upon Thames,,128010803,E09000021,New Malden Village,E05013940,51.3987777,-0.259235194,521193.15770000033,168075.76129999943
Thornton Heath,,,,Croydon,,200001206453,E09000008,Bensham Manor,E05011464,51.3963774,-0.103997406,531998.3370000003,168076.6336000003
South Norwood,,,,Croydon,,200001210571,E09000008,South Norwood,E05011485,51.39677584,-0.077124186,533866.5768999998,168169.66169999912
Pollards Hill Library,,,,Merton,,48065103,E09000024,Pollards Hill,E05013821,51.3995746,-0.13027904,530161.0005000001,168385.23420000076
Morden Library,,,,Merton,,48083350,E09000024,St Helier,E05013824,51.40100796,-0.194447903,525693.6151999999,168432.7951999996
Shortlands Library,,,,Bromley,,100022891493,E09000006,Shortlands & Park Langley,E05014005,51.39924941,-0.005589835,538835.1715000002,168577.7251999993
Norbury,,,,Croydon,,100023319420,E09000008,Norbury & Pollards Hill,E05011472,51.40507418,-0.119052849,530926.1782999998,169016.75760000013
Bromley Central Library,,,,Bromley,,100022886980,E09000006,Bromley Town,E05013991,51.40324078,0.016066784,540329.3874000004,169062.75699999928
Kingston Library,,,,Kingston upon Thames,,128019808,E09000021,Kingston Town,E05013938,51.40882739,-0.298688099,518422.91500000004,169128.83860000037
Raynes Park Library,,,,Merton,,48128562,E09000024,Raynes Park,E05013823,51.40858096,-0.226221534,523463.1978000002,169220.95639999956
Mitcham Library,,,,Merton,,48083196,E09000024,Figge's Marsh,E05013814,51.40810347,-0.160877126,528008.8531,169279.88460000046
St Pauls Cray Library,,,,Bromley,,100022898290,E09000006,St Paul's Cray,E05014007,51.40401746,0.104867667,546503.1308000004,169322.73409999907
Beckenham Library,,,,Bromley,,10003628986,E09000006,Clock House,E05013994,51.40810746,-0.03534684,536738.8963000001,169506.86840000004
Hampton,,,,Richmond upon Thames,,100023398181,E09000027,Hampton,E05013778,51.41335784,-0.368733087,513540.3371000001,169521.86150000058
Hampton Wick,,,,Richmond upon Thames,,10002251905,E09000027,Hampton Wick & South Teddington,E05013780,51.41327031,-0.311754655,517502.81400000025,169601.89220000058
Penge Library,,,,Bromley,,10070007380,E09000006,Penge & Cator,E05014002,51.41339872,-0.049516924,535737.7836999996,170068.9349000007
Colliers Wood Library,,,,Merton,,48121555,E09000024,Colliers Wood,E05013812,51.41810235,-0.175888599,526937.2148000002,170365.65359999985
Upper Norwood,,,,Croydon,,10091838065,E09000008,Crystal Palace & Upper Norwood,E05011467,51.4195192,-0.079751385,533617.5345999999,170693.97709999979
Wimbledon Library,,,,Merton,,48127190,E09000024,Hillside,E05013816,51.42192157,-0.206383148,524806.5328000002,170738.03869999945
Burnt Ash Library,,,,Bromley,,100022890161,E09000006,Plaistow,E05014004,51.4192948,0.021290019,540643.3958999999,170857.9489999991
Hampton Hill,,,,Richmond upon Thames,,10024344272,E09000027,Fulwell & Hampton Hill,E05013776,51.4259997,-0.354371646,514507.45579999965,170950.0281000007
Chislehurst Library,,,,Bromley,,100022901114,E09000006,Chislehurst,E05013993,51.41951611,0.066352567,543775.8361,170969.90550000034
Tudor Drive Library,,,,Kingston upon Thames,,128039997,E09000021,Tudor,E05013946,51.42580323,-0.295942865,518569.8975999998,171021.07239999995
Teddington,,,,Richmond upon Thames,,10002264575,E09000027,Teddington,E05013788,51.42722399,-0.332819999,516002.6431999998,171120.06570000015
Tooting Library,,,,Wandsworth,,121014131,E09000032,Tooting Broadway,E05014024,51.42603474,-0.164185342,527728.8392000003,171268.0429999996
Sydenham community library service,,,,Lewisham,,100023262826,E09000023,Bellingham,E05013714,51.42640821,-0.039007332,536429.8865999999,171535.07719999924
Downham Library,,,,Lewisham,,100022890162,E09000023,Downham,E05013720,51.42655123,0.011453184,539937.3062000005,171646.0253999997
Sidcup Library,,,,Bexley,,100022918511,E09000004,Sidcup,E05011230,51.42531937,0.106637863,546558.1523000002,171694.99750000052
Kingswood Library,,,,Southwark,,200003436418,E09000028,Dulwich Wood,E05011101,51.42992202,-0.080120892,533561.5367,171850.0867999997
Streatham,,,,Lambeth,,100023315960,E09000022,Streatham Wells,E05014116,51.43105845,-0.127568076,530260.1238000002,171891.0558000002
Coldharbour Library,,,,Greenwich,,10010224659,E09000011,"Mottingham, Coldharbour & New Eltham",E05014086,51.42980097,0.058915383,543226.5736999996,172099.0195000004
Ham,,,,Richmond upon Thames,,100023395688,E09000027,"Ham, Petersham & Richmond Riverside",E05013777,51.43737166,-0.311671896,517446.77410000004,172282.22250000015
Hanworth Library,,,,Hounslow,,100023517802,E09000018,Hanworth Village,E05013616,51.43983125,-0.387346368,512181.1755999997,172437.18989999965
Forest Hill Library,,,,Lewisham,,100023257020,E09000023,Forest Hill,E05013722,51.43537399,-0.054595642,535319.7638999997,172503.16740000062
Grove Park community library service,,,,Lewisham,,100023232090,E09000023,Grove Park,E05013723,51.43543627,0.02508199,540857.4281000001,172660.1085000001
Mottingham Library,,,,Greenwich,,100023283985,E09000011,"Mottingham, Coldharbour & New Eltham",E05014086,51.43693949,0.045208326,542251.5992999999,172866.10639999993
Heathfield Library Access Point,,,,Richmond upon Thames,,100023401561,E09000027,West Twickenham,E05013790,51.4434674,-0.362896718,513871.38910000026,172879.26449999958
New Eltham Library,,,,Greenwich,,10010197970,E09000011,"Mottingham, Coldharbour & New Eltham",E05014086,51.43700853,0.072897864,544175.8233000003,172927.89550000057
Earlsfield Library,,,,Wandsworth,,100023328731,E09000032,Wandsworth Common,E05014027,51.44192022,-0.185149645,526227.7070000004,172998.21660000086
Feltham Library,,,,Hounslow,,100023399114,E09000018,Hanworth Park,E05013615,51.44585041,-0.409519872,510625.59669999965,173072.90069999918
Southfields Library,,,,Wandsworth,,100023335031,E09000032,West Hill,E05014029,51.44303209,-0.207139118,524696.5537999999,173084.25049999915
Torridon Road Library,,,,Lewisham,,100023276877,E09000023,Hither Green,E05013724,51.44182955,2.1197e-5,539096.2280000001,173323.21330000088
Twickenham,,,,Richmond upon Thames,,100023574356,E09000027,Twickenham Riverside,E05013789,51.44697104,-0.326329333,516403.6649000002,173326.34469999932
Balham Library,,,,Wandsworth,,100023306589,E09000032,Balham,E05014009,51.44496215,-0.150761033,528608.9439000003,173396.20580000058
Catford library,,,,Lewisham,,200000556121,E09000023,Rushey Green,E05013730,51.4440966,-0.019079052,537762.0728000002,173539.26429999992
Bexley Community Library,,,,Bexley,,100022922056,E09000004,St Mary's & St James,E05011229,51.44224098,0.152449184,549687.5445999997,173669.1799999997
Bedfont Library,,,,Hounslow,,100023400018,E09000018,Bedfont,E05013606,51.45154014,-0.432661866,509003.90869999956,173670.99980000034
Roehampton Library,,,,Wandsworth,,100023314365,E09000032,Roehampton,E05014017,51.44929376,-0.240517105,522360.2980000004,173724.34050000086
Whitton,,,,Richmond upon Thames,,100023401915,E09000027,Whitton,E05013791,51.45223366,-0.357588317,514218.43769999966,173862.3925999999
Dulwich Library,,,,Southwark,,200003440972,E09000028,Dulwich Hill,E05011099,51.44828683,-0.072974201,534004.6061000004,173905.27999999933
Blackfen Community Library,,,,Bexley,,10023305013,E09000004,Blendon & Penhill,E05011221,51.44966601,0.106032019,546438.1518000001,174401.07200000063
Eltham Centre Library,,,,Greenwich,,100023282187,E09000011,Eltham Town & Avery Hill,E05014079,51.45051273,0.05950408,543202.7192000002,174403.28460000083
Northcote Library,,,,Wandsworth,,100023304130,E09000032,Northcote,E05014016,51.45463918,-0.162764313,527747.869,174451.3183999993
Wandsworth Town Library,,,,Wandsworth,,121008322,E09000032,Wandsworth Town,E05014028,51.45567007,-0.190880754,525791.6774000004,174517.3574000001
Crayford Library,,,,Bexley,,10090792770,E09000004,Crayford,E05011222,51.44939192,0.181716274,551697.6452000001,174524.5142000001
Richmond Information and Reference Library. Richmond ,,,,Richmond upon Thames,,10002264550,E09000027,South Richmond,E05013786,51.4583449,-0.304851588,517866.8099999996,174625.48680000007
Crofton Park community library service,,,,Lewisham,,100023271665,E09000023,Crofton Park,E05013718,51.45492733,-0.034704482,536643.9519999996,174714.3906999994
Manor House Library,,,,Lewisham,,100023570127,E09000023,Lee Green,E05013726,51.45679923,0.006103015,539473.2978999997,174999.38099999912
Richmond Lending Library,,,,Richmond upon Thames,,10002249444,E09000027,South Richmond,E05013786,51.46178601,-0.302132551,518046.8365000002,175012.52270000055
Putney Library,,,,Wandsworth,,100023313019,E09000032,Thamesfield,E05014022,51.46127262,-0.214314012,524148.5214999998,175100.43879999965
Central Library,,,,Bexley,,100022922362,E09000004,Bexleyheath,E05011219,51.45547478,0.145384246,549153.4524999997,175126.3565999996
Lewisham Library,,,,Lewisham,,100023234441,E09000023,Lewisham Central,E05013727,51.45875667,-0.010065265,538344.1649000002,175186.4232999999
Carnegie library (Herne Hill),,,,Lambeth,,10091838239,E09000022,Herne Hill & Loughborough Junction,E05014104,51.46026675,-0.09500123,532439.4206999997,175197.3872999996
Brixton,,,,Lambeth,,200000455963,E09000022,Brixton Windrush,E05014098,51.46058716,-0.113142886,531178.2653999999,175200.38099999912
Grove Vale Library,,,,Southwark,,200003443932,E09000028,Goose Green,E05011103,51.46109982,-0.077718332,533637.5700000003,175321.40770000033
Clapham,,,,Lambeth,,10090197569,E09000022,Clapham East,E05014100,51.46259073,-0.132070789,529857.7441999996,175389.46839999966
East Sheen,,,,Richmond upon Thames,,100023310505,E09000027,East Sheen,E05013775,51.46489979,-0.266021105,520547.1188000003,175417.5236000009
Battersea Library,,,,Wandsworth,,100023297401,E09000032,Lavender,E05014014,51.46351276,-0.162566274,527736.8866999997,175438.4173000008
Isleworth Library,,,,Hounslow,,100023407264,E09000018,Isleworth,E05013625,51.46639803,-0.328555858,516199.6496000001,175483.17989999987
Hounslow Library,,,,Hounslow,,100023402396,E09000018,Hounslow Central,E05013620,51.4676225,-0.361468633,513910.54980000015,175567.68439999968
Beavers Library,,,,Hounslow,,10093260482,E09000018,Cranford,E05013612,51.46972705,-0.394852683,511586.65469999984,175750.34779999964
York Gardens Library,,,,Wandsworth,,10091844398,E09000032,Falconbrook,E05014012,51.46671069,-0.176145747,526784.7927999999,175770.45910000056
Welling Library,,,,Bexley,,100022920830,E09000004,Falconwood & Welling,E05011226,51.46201211,0.107780415,546520.0937999999,175777.4293000009
Hurlingham and Chelsea School and Community Library ,,,,Hammersmith and Fulham,,34063756,E09000013,Palace & Hurlingham,E05013744,51.46730717,-0.194927408,525478.6583000002,175804.4774999991
Nunhead Library,,,,Southwark,,200003385977,E09000028,Nunhead & Queen's Road,E05011108,51.46527339,-0.058104468,534987.7457999997,175821.47030000016
Blackheath Village community library service,,,,Greenwich,,100023268086,E09000011,Blackheath Westcombe,E05014073,51.46567918,0.011172244,539798.3536,175996.4802000001
Minet,,,,Lambeth,,100021859495,E09000022,Myatt's Fields,E05014107,51.47077924,-0.103808424,531797.3517000005,176350.4918000009
Battersea Park Library,,,,Wandsworth,,100023301848,E09000032,Battersea Park,E05014010,51.47387352,-0.152846626,528382.9835000001,176607.5351999998
Cranford Library,,,,Hounslow,,100023405818,E09000018,Cranford,E05013612,51.47764106,-0.404892845,510870.16559999995,176615.18009999953
Kew,,,,Richmond upon Thames,,100023410988,E09000027,Kew,E05013782,51.47599683,-0.283069715,519334.00820000004,176623.66059999913
Peckham Library,,,,Southwark,,200003394812,E09000028,Rye Lane,E05011113,51.47386908,-0.067762882,534291.6626000004,176759.54770000093
Fulham,,,,Hammersmith and Fulham,,34044300,E09000013,Walham Green,E05013749,51.47675544,-0.201107392,525023.6284999996,176844.58320000023
Camberwell Library,,,,Southwark,,10090749181,E09000028,St Giles,E05011115,51.47531156,-0.091033138,532671.4605999999,176877.54399999976
New Cross community library service,,,,Lewisham,,100023239028,E09000023,Brockley,E05013716,51.47500522,-0.03708193,536418.9216,176942.59219999984
North Heath Community Library,,,,Bexley,,10011846473,E09000004,Northumberland Heath,E05011228,51.47278049,0.162930989,550315.5663000001,177086.56269999966
Castelnau,,,,Richmond upon Thames,,100023309520,E09000027,Barnes,E05013774,51.47975012,-0.23601797,522591.3755999999,177118.64269999973
Slade Green Community Library,,,,Bexley,,10090794390,E09000004,Slade Green & Northend,E05011231,51.47260377,0.192596225,552376.2847999996,177128.19370000064
Osterley Library,,,,Hounslow,,100023406343,E09000018,Osterley & Spring Grove,E05013626,51.48182162,-0.344332814,515065.05040000007,177173.44490000047
Tate South Lambeth,,,,Lambeth,,100023383422,E09000022,Oval,E05014108,51.47868673,-0.122377153,530485.2231000001,177196.58530000038
The Library at Deptford Lounge,,,,Lewisham,,10023235598,E09000023,Deptford,E05013719,51.4771916,-0.022686192,537412.0328000002,177212.62749999948
Blackheath Library,,,,Greenwich,,100023268277,E09000011,Blackheath Westcombe,E05014073,51.47646341,0.02315429,540597.4633999998,177218.59410000034
West Greenwich Library,,,,Greenwich,,10010200468,E09000011,Greenwich Park,E05014081,51.47748419,-0.009682215,538314.1494000005,177269.63570000045
Bostall Community Library,,,,Bexley,,100022923151,E09000004,West Heath,E05011233,51.47518169,0.131517747,548126.2646000003,177289.58689999953
Heston Library,,,,Hounslow,,100023405372,E09000018,Heston Central,E05013617,51.4853629,-0.373872389,513005.2139999997,177521.27569999918
Brandon Library,,,,Southwark,,200003494326,E09000028,Newington,E05011105,51.4822063,-0.101346625,531935.3891000003,177625.6205000002
Charlton Library,,,,Greenwich,,100023280005,E09000011,Charlton Village & Riverside,E05014075,51.47996113,0.038778646,541671.5752999997,177637.63759999909
Brentford Library ,,,,Hounslow,,100023408161,E09000018,Brentford West,E05013608,51.48610093,-0.306007544,517715.1486999998,177710.16169999912
Erith Library,,,,Bexley,,10023303354,E09000004,Slade Green & Northend,E05011231,51.47860538,0.182997078,551689.767,177775.64800000004
Chelsea Library,,,,Kensington and Chelsea,,217105143,E09000020,Royal Hospital,E05009403,51.48695911,-0.166593622,527391.9073000001,178038.69270000048
Greenwich Centre Library,,,,Greenwich,,10010254284,E09000011,East Greenwich,E05014076,51.48507784,0.009978276,539656.1873000003,178151.32330000028
Pimlico Library,,,,Westminster,,10033620911,E09000033,Pimlico South,E05013803,51.48766566,-0.135592046,529542.1995999999,178171.61150000058
Upper Belvedere Community Library,,,,Bexley,,100022921251,E09000004,Belvedere,E05011218,51.4834101,0.14685388,549164.3805999998,178235.6860000007
Durning,,,,Lambeth,,100023229223,E09000022,Kennington,E05014105,51.48827569,-0.108499154,531421.3426999999,178287.69099999964
Brompton Library,,,,Kensington and Chelsea,,217060921,E09000020,Redcliffe,E05009402,51.48956716,-0.186830684,525979.7539999997,178293.72589999996
Chiswick Library,,,,Hounslow,,200002819006,E09000018,Chiswick Gunnersbury,E05013609,51.49118486,-0.259517611,520929.40299999993,178351.1760000009
Plumstead Library,,,,Greenwich,,100023243067,E09000011,Plumstead & Glyndon,E05014087,51.48585252,0.097888361,545756.9976000004,178408.72199999914
Avonmore Library and Neighbourhood Centre,,,,Hammersmith and Fulham,,34058302,E09000013,Avonmore,E05013734,51.49206749,-0.205547084,524673.6103999997,178539.7561000008
Pepys community library service,,,,Lewisham,,100023569428,E09000023,Evelyn,E05013721,51.48930584,-0.029077129,536931.9572999999,178547.7435999997
East Street Library,,,,Southwark,,200003494660,E09000028,South Bermondsey,E05011116,51.49038632,-0.080102591,533386.5598999998,178573.71089999937
Woolwich Library,,,,Greenwich,,10010239328,E09000011,Woolwich Arsenal,E05014092,51.48875521,0.067021338,543604.9412000002,178670.54089999944
Victoria Library,,,,Westminster,,10033616882,E09000033,Pimlico North,E05013802,51.49239532,-0.146262996,528788.0577999996,178678.74530000053
Harlington Library,,,,Hillingdon,,10003001185,E09000017,Pinkwell,E05013576,51.49708916,-0.434933798,508737.8680999996,178732.83779999986
Hammersmith,,,,Hammersmith and Fulham,,34027231,E09000013,Brook Green,E05013735,51.4940733,-0.222094745,523519.4818000002,178734.7818
Blue Anchor Library,,,,Southwark,,200003408074,E09000028,South Bermondsey,E05011116,51.49237424,-0.062081863,534631.6980999997,178827.7424999997
Newington Temporary Library,,,,Southwark,,10093341252,E09000028,North Walworth,E05011107,51.49344456,-0.096953397,532207.9414999997,178883.24499999918
Northfields Library,,,,Ealing,,12004049,E09000009,Northfield,E05013530,51.49852209,-0.312582853,517226.7871000003,179080.8962999992
Express Library,,,,Westminster,,100023338401,E09000033,St James's,E05013806,51.49704271,-0.128567805,530003.1880999999,179226.7901000008
Abbey Wood Library,,,,Greenwich,,10010232562,E09000011,Abbey Wood,E05014072,51.49324188,0.111800593,546699.1317999996,179258.18569999933
Cubitt Town library,,,,Tower Hamlets,,6081796,E09000030,Blackwall & Cubitt Town,E05009318,51.49546216,-0.010181399,538225.0983999996,179267.83239999972
Waterloo,,,,Lambeth,,100023225318,E09000022,Waterloo & South Bank,E05014118,51.49766755,-0.110329276,531267.3254000004,179328.79279999994
Canada Water Library,,,,Southwark,,10090284129,E09000028,Rotherhithe,E05011112,51.49729578,-0.047564977,535624.8009000001,179401.80729999952
Southall Library (Dominion Centre and Library),,,,Ealing,,12020455,E09000009,Southall Green,E05013538,51.50287467,-0.377570641,512705.29000000004,179462.95790000074
Kensington Central Library,,,,Kensington and Chelsea,,217125485,E09000020,Queen's Gate,E05009401,51.50090763,-0.19283156,525532.0152000003,179544.50599999912
West Drayton Library,,,,Hillingdon,,100023420922,E09000017,West Drayton,E05013581,51.50520608,-0.468693946,506375.54870000016,179585.9132000003
Askew Road,,,,Hammersmith and Fulham,,34011906,E09000013,Coningham,E05013737,51.50317005,-0.24146864,522150.3295999998,179713.89079999924
John Harvard Library,,,,Southwark,,200003356510,E09000028,Chaucer,E05011098,51.50125566,-0.09032367,532645.4736000001,179763.82349999994
Botwell Green Library,,,,Hillingdon,,10022805611,E09000017,Hayes Town,E05013569,51.50797249,-0.416286829,510006.02720000036,179970.98039999977
Acton Town Hall Library,,,,Ealing,,12180771,E09000009,South Acton,E05013536,51.50589642,-0.26632407,520418.13790000044,179975.93689999916
North Woolwich Library,,,,Newham,,10008995497,E09000025,Royal Albert,E05013922,51.50055166,0.064267038,543376.7295000004,179976.90190000087
Thamesmead Library,,,,Bexley,,100020239019,E09000004,Thamesmead East,E05011232,51.49981378,0.124208362,547539.1716999998,180013.9059999995
Idea Store Canary Wharf,,,,Tower Hamlets,,6145802,E09000030,Blackwall & Cubitt Town,E05009318,51.50390566,-0.013173491,537991.9046999998,180201.08970000036
West Ealing Library,,,,Ealing,,12002863,E09000009,Walpole,E05013541,51.50898637,-0.322962116,516479.68989999965,180228.02009999938
Hanwell Library,,,,Ealing,,12001465,E09000009,Hanwell Broadway,E05013525,51.50942108,-0.334533647,515675.59970000014,180258.03050000034
Mayfair Library,,,,Westminster,,100022802697,E09000033,West End,E05013808,51.50886039,-0.14954367,528514.0129000004,180503.91970000044
Ealing Central Library,,,,Ealing,,12148296,E09000009,Ealing Broadway,E05013520,51.51182412,-0.300805858,518009.8668999998,180579.02859999985
Yiewsley Library,,,,Hillingdon,,100023420805,E09000017,Yiewsley,E05013584,51.51464462,-0.472499744,506089.5022999998,180630.02759999968
Notting Hill Gate Library,,,,Kensington and Chelsea,,217105238,E09000020,Pembridge,E05009400,51.51076859,-0.195818555,525297.6596999997,180635.94989999942
Charring Cross Library,,,,Westminster,,10033531833,E09000033,St James's,E05013806,51.50976289,-0.126518762,530109.1865999997,180644.92320000008
Thamesmere Library,,,,Greenwich,,10010224992,E09000011,Thamesmead Moorings,E05014090,51.50721776,0.110795098,546584.5000999998,180810.28910000063
Idea Store Chrisp Street,,,,Tower Hamlets,,6173963,E09000030,Poplar,E05009328,51.51105004,-0.012858142,537992.2017999999,180996.1118999999
North Kensington Library,,,,Kensington and Chelsea,,217048255,E09000020,Colville,E05009392,51.51615689,-0.207627437,524463.5619000001,181215.00870000012
Idea Store Watney Market,,,,Tower Hamlets,,6196250,E09000030,Shadwell,E05009332,51.51382558,-0.055650795,535014.7128999997,181224.99960000068
Shoe Lane,,,,City of London,,200000075492,E09000001,Farringdon Within,E05009304,51.51492977,-0.104973389,531589.3460999997,181257.96780000068
Paddington Library,,,,Westminster,,100023482172,E09000033,Bayswater,E05013793,51.5169107,-0.187042195,525889.7181000002,181334.01180000044
Artizan Street,,,,City of London,,95511788,E09000001,Portsoken,E05009308,51.51514611,-0.075183973,533655.5685,181335.99120000005
Guildhall Library and City Business Library,,,,City of London,,100023529028,E09000001,Bassishaw,E05009290,51.51556142,-0.091238833,532540.4502999997,181352.9759999998
Yeading Library,,,,Hillingdon,,100023417063,E09000017,Belmore,E05013564,51.52036818,-0.402580015,510927.11760000046,181370.1436999999
Jubilee Gardens Library,,,,Ealing,,12000640,E09000009,Lady Margaret,E05013526,51.52072747,-0.367926306,513330.3417999996,181463.16229999997
Custom House Library,,,,Newham,,10008990024,E09000025,Custom House,E05013908,51.51466945,0.033005735,541163.4386999998,181486.05340000056
Beckton Library,,,,Newham,,10008997116,E09000025,Beckton,E05013904,51.51452083,0.056999433,542828.6522000004,181516.05729999952
Canning Town Library,,,,Newham,,10008988046,E09000025,Canning Town North,E05013906,51.5168551,0.012662185,539745.2476000004,181690.03089999966
Marylebone Library,,,,Westminster,,100022725022,E09000033,Marylebone,E05013801,51.52012163,-0.149058338,528516.0016000001,181757.03680000082
Barbican,,,,City of London,,200000072620,E09000001,Cripplegate,E05009302,51.51944948,-0.092517837,532440.4364999998,181783.01579999924
Idea Store Whitechapel,,,,Tower Hamlets,,6000711,E09000030,Whitechapel,E05009336,51.51927063,-0.056427971,534944.699,181829.06519999914
Holborn Library,,,,Camden,,5082117,E09000007,Holborn & Covent Garden,E05013662,51.52067122,-0.11412,530938.2692999998,181880.03020000085
Hayes End Library,,,,Hillingdon,,100023417260,E09000017,Charville,E05013565,51.52547573,-0.434551689,508696.88159999996,181890.1992000006
Little Venice Sports Centre Library,,,,Westminster,,10033612553,E09000033,Little Venice,E05013799,51.52203057,-0.175608347,526668.7982000001,181923.06350000016
Church Street Library,,,,Westminster,,10033532267,E09000033,Church Street,E05013794,51.52252362,-0.168582114,527154.8507000003,181990.0661999993
Kensal Library,,,,Kensington and Chelsea,,217035223,E09000020,Golborne,E05009396,51.52333382,-0.205283983,524606.5698999995,182017.08359999955
Rainham Library,,,,Havering,,10024389958,E09000016,Rainham & Wennington,E05013979,51.51675181,0.192670878,552234.2363999998,182037.3936999999
Pitshanger Library,,,,Ealing,,12132976,E09000009,Pitshanger,E05013535,51.52539097,-0.31235373,517173.75100000016,182069.1958000008
Maida Vale Library,,,,Westminster,,100023511234,E09000033,Westbourne,E05013809,51.52416055,-0.188859128,525743.6946999999,182137.0889999997
Local History Library,,,,Tower Hamlets,,6033654,E09000030,Bethnal Green,E05009317,51.52330884,-0.040757515,536019.8086999999,182307.11360000074
Queen's Park library,,,,Kensington and Chelsea,,100023433123,E09000020,Golborne,E05009396,51.52651654,-0.209340014,524316.5339000002,182364.1166999992
Greenford Library,,,,Ealing,,12001186,E09000009,Greenford Broadway,E05013523,51.52930578,-0.353676795,514297.43180000037,182439.2575000003
Finsbury Library,,,,Islington,,5300084848,E09000019,Clerkenwell,E05013702,51.52597704,-0.102943118,531698.3505999995,182490.08060000092
Bethnal Green library,,,,Tower Hamlets,,6036905,E09000030,Bethnal Green,E05009317,51.52592691,-0.052150698,535221.7186000003,182577.1598000005
Charville Library,,,,Hillingdon,,100023417465,E09000017,Charville,E05013565,51.53458782,-0.425961931,509270.93840000033,182916.31770000048
Shoreditch Library,,,,Hackney,,100023135480,E09000012,Hoxton East & Shoreditch,E05009377,51.52992914,-0.078323828,533394.5259999996,182974.15530000068
Thames View,,,,Barking and Dagenham,,10091588559,E09000002,Thames View,E05014068,51.52735487,0.106154673,546198.0774999997,183040.18290000036
Plaistow Library,,,,Newham,,46096940,E09000025,Plaistow North,E05013918,51.52918631,0.027235955,540718.3915999997,183089.1964999996
St John's Wood Library,,,,Westminster,,10033532542,E09000033,Regent's Park,E05013805,51.53323428,-0.17084876,526967.8195000002,183177.17960000038
Pancras Square Library,,,,Camden,,5172479,E09000007,King's Cross,E05013666,51.53331656,-0.124801847,530161.1742000002,183267.1621000003
Camden Town Library,,,,Camden,,5021816,E09000007,Regent's Park,E05013668,51.53374045,-0.136162072,529372.085,183294.17109999992
Idea Store Bow,,,,Tower Hamlets,,6053810,E09000030,Bow East,E05009319,51.53204897,-0.028312673,536856.8925000001,183302.20849999972
East Ham Library,,,,Newham,,46253323,E09000025,East Ham,E05013909,51.5317699,0.057056061,542778.6666000001,183434.2620000001
Kilburn Library Centre,,,,Camden,,5134480,E09000007,Kilburn,E05013665,51.53588068,-0.189547539,525663.6728999997,183439.21160000004
South Hornchurch Library,,,,Havering,,100023214503,E09000016,South Hornchurch,E05013984,51.52970163,0.18917753,551948.8202,183470.1819000002
Northolt Library,,,,Ealing,,12140961,E09000009,Northolt West End,E05013532,51.53913239,-0.383852769,512180.24739999976,183485.3895999994
Harlesden,,,,Brent,,202110706,E09000005,Harlesden & Kensal Green,E05013501,51.53817576,-0.248902211,521541.2281999998,183594.26099999994
Oak Farm Library,,,,Hillingdon,,100023414220,E09000017,Hillingdon East,E05013571,51.54105794,-0.448540066,507689.7324999999,183602.3739
Lewis Carroll Children's Library,,,,Islington,,10012791189,E09000019,Barnsbury,E05013698,51.53656146,-0.115712865,530782.2418,183644.1894000005
Perivale Library,,,,Ealing,,12003797,E09000009,Perivale,E05013534,51.54009645,-0.32248201,516433.64549999963,183688.3708999995
Green Street Library,,,,Newham,,10009001054,E09000025,Green Street East,E05013913,51.53588095,0.036907327,541368.4901999999,183852.29389999993
South Library,,,,Islington,,5300031416,E09000019,St Mary's & St James',E05013710,51.53852804,-0.097142753,532064.3786000004,183896.22210000083
Barking,,,,Barking and Dagenham,,100053358,E09000002,Abbey,E05014053,51.5358099,0.081422904,544455.8778999997,183931.29659999907
Uxbridge Library,,,,Hillingdon,,100023421562,E09000017,Uxbridge,E05013580,51.54468289,-0.47672958,505726.45079999976,183964.38099999912
Chalk Farm (now Primrose Hill Community Library),,,,Camden,,5154072,E09000007,Primrose Hill,E05013667,51.54063196,-0.15509123,528039.9309,184027.24990000017
West Library,,,,Islington,,5300011807,E09000019,Barnsbury,E05013698,51.54023085,-0.114594977,530849.2467,184054.22629999928
Swiss Cottage Library,,,,Camden,,5061473,E09000007,Primrose Hill,E05013667,51.54178129,-0.171630986,526889.8021,184126.2686999999
Stratford Library,,,,Newham,,46101428,E09000025,Stratford,E05013924,51.54226038,0.005951316,539202.1903999997,184502.30709999986
Willesden Green,,,,Brent,,202216288,E09000005,Brondesbury Park,E05013498,51.54614396,-0.22734961,523014.3651999999,184516.32489999942
Dagenham,,,,Barking and Dagenham,,10023599312,E09000002,Village,E05014070,51.53986885,0.150073004,549203.432,184520.33400000073
Northolt Leisure Centre Library,,,,Ealing,,12173354,E09000009,Northolt Mandeville,E05013531,51.54839666,-0.366920507,513331.4550999999,184541.7106999997
Hackney Central Library,,,,Hackney,,10008243137,E09000012,Homerton,E05009376,51.54397082,-0.054481199,535006.6996999998,184579.3951999992
Dalston CLR James Library,,,,Hackney,,10008322989,E09000012,Dalston,E05009370,51.54553907,-0.072345591,533763.4253000002,184720.96050000004
Ealing Road,,,,Brent,,202102174,E09000005,Wembley Central,E05013514,51.54902978,-0.295856874,518256.8551000003,184724.4366999995
Belsize Community Library,,,,Camden,,5045720,E09000007,Belsize,E05013652,51.5473928,-0.160674101,527633.8814000003,184769.32039999962
Mildmay Library,,,,Islington,,5300062563,E09000019,Mildmay,E05013709,51.54709791,-0.082721131,533039.4786999999,184875.3741999995
West Hampstead Library,,,,Camden,,5037144,E09000007,West Hampstead,E05013671,51.54981004,-0.19003314,525591.6517000003,184987.3571000006
Barham Park,,,,Brent,,202209694,E09000005,Wembley Central,E05013514,51.55167842,-0.309851801,517279.74980000034,184996.4751999993
Wood End Library,,,,Ealing,,12001293,E09000009,North Greenford,E05013528,51.55227084,-0.348289165,514613.48979999963,185001.5287999995
Islington Central Library,,,,Islington,,5300033298,E09000019,Highbury,E05013704,51.54872784,-0.105545308,531452.3047000002,185015.33000000007
Kentish Town Library,,,,Camden,,5085726,E09000007,Kentish Town South,E05013664,51.54950403,-0.138864449,529140.0495999996,185042.33070000075
Queens Crescent Library,,,,Camden,,5055133,E09000007,Haverstock,E05013660,51.54997951,-0.149592003,528394.9660999998,185076.34119999968
The Gate Library ,,,,Newham,,10008993577,E09000025,Forest Gate South,E05013912,51.54719385,0.02711327,540654.4039000003,185091.4031000007
Homerton Library,,,,Hackney,,100023022501,E09000012,Hackney Wick,E05009374,51.54845395,-0.040153269,535986.7987000002,185104.42259999923
John Barnes Library,,,,Islington,,10093108781,E09000019,Holloway,E05013706,51.55043083,-0.124213467,530153.1623,185171.33180000074
South Ruislip Library,,,,Hillingdon,,10003002133,E09000017,South Ruislip,E05013579,51.55683414,-0.393563692,511463.59410000034,185439.10390000045
Manor Park Library,,,,Newham,,10008990819,E09000025,Manor Park,E05013916,51.55021122,0.048597724,542134.6150000002,185468.4849999994
Keats Community Library,,,,Camden,,5085918,E09000007,Hampstead Town,E05013659,51.55497759,-0.166629413,527199.8332000002,185602.40919999965
Cricklewood,,,,Brent,,202217896,E09000005,Cricklewood & Mapesbury,E05013499,51.556355,-0.225798393,523094.3821999999,185654.4218000006
Elm Park Library,,,,Havering,,100023214017,E09000016,Elm Park,E05013969,51.55199482,0.200125381,552633.6597999996,185971.87969999947
Ickenham Library,,,,Hillingdon,,100023413527,E09000017,Ickenham & South Harefield,E05013573,51.56302186,-0.441948781,508094.7598000001,186054.61950000003
Roxeth,,,,Harrow,,200000307802,E09000015,Roxeth,E05013559,51.56211325,-0.354959407,514126.4735000003,186085.63629999943
Harrow Green Community Library,,,,Waltham Forest,,100022963778,E09000031,Cann Hall,E05013882,51.5576213,0.008070079,539302.2171,186214.5019000005
North Library,,,,Islington,,5300060053,E09000019,Tollington,E05013712,51.55990827,-0.120173008,530406.1918000001,186232.43879999965
Leyton Library,,,,Waltham Forest,,10009148520,E09000031,Grove Green,E05013888,51.55822906,-0.005941923,538329.0767000001,186255.48809999973
Childs Hill ,,,,Barnet,,200219960,E09000003,Childs Hill,E05013631,51.56166852,-0.199092218,524931.1315000001,186290.5449000001
Redbridge Central Library,,,,Redbridge,,100023043071,E09000026,Clementswood,E05011240,51.55755549,0.076933039,544075.8660000004,186340.56909999996
Upminster Library,,,,Havering,,100023215782,E09000016,Upminster,E05013986,51.55463794,0.249745369,556064.4671,186370.44910000078
Stoke Newington Library,,,,Hackney,,100023154905,E09000012,Clissold,E05009369,51.56111212,-0.081208186,533103.5323999999,186436.53800000064
Valence,,,,Barking and Dagenham,,100002559,E09000002,Valence,E05014069,51.55806921,0.135478474,548132.3553999998,186514.57129999995
Goodmayes Library,,,,Redbridge,,100023050383,E09000026,Goodmayes,E05011244,51.55889344,0.110599992,546405.2585000005,186556.18759999983
Highgate Library,,,,Camden,,5090720,E09000007,Highgate,E05013661,51.56326752,-0.142487036,528850.0192999998,186566.48619999923
Clapton Library,,,,Hackney,,100023005817,E09000012,Hackney Downs,E05009373,51.56216084,-0.058336644,534685.7258000001,186595.04529999942
N4 Library,,,,Hackney,,10001298318,E09000012,Brownswood,E05009367,51.56332898,-0.101937018,531660.3578000003,186645.51400000043
Archway Library,,,,Islington,,10012791132,E09000019,Junction,E05013707,51.56517477,-0.134025306,529431.0851999996,186793.50349999964
Aldersbrook Library,,,,Redbridge,,100023583395,E09000026,Wanstead Park,E05011254,51.56285706,0.034606393,541125.4863999998,186847.60679999925
Preston,,,,Brent,,202120286,E09000005,Preston,E05013506,51.56968996,-0.294175125,518319.91060000006,187024.64489999972
Ruislip Manor Library,,,,Hillingdon,,10022800920,E09000017,Ruislip Manor,E05013578,51.57182885,-0.409969652,510290.04030000046,187081.73809999973
Seven Kings Library,,,,Redbridge,,10034922466,E09000026,Goodmayes,E05011244,51.5642506,0.10146687,545755.0900999997,187133.67049999908
Leytonstone Library,,,,Waltham Forest,,100023583898,E09000031,Leytonstone,E05013897,51.56766325,0.011976135,539542.2605999997,187338.63370000012
Woodberry Down Library,,,,Hackney,,10008328988,E09000012,Woodberry Down,E05009387,51.56958151,-0.089760986,532486.1323999995,187362.8139999993
Hornchurch Library,,,,Havering,,100023516053,E09000016,St Andrew's,E05013982,51.56438705,0.222200226,554122.1686000004,187396.15479999967
Stamford Hill Library,,,,Hackney,,100023159219,E09000012,Cazenove,E05009368,51.56986343,-0.070823934,533797.6502999999,187428.6615999993
Lea Bridge Library,,,,Waltham Forest,,200001422209,E09000031,Lea Bridge,E05013895,51.57019993,-0.021899496,537186.9409999996,187556.63949999958
Manor Farm Library,,,,Hillingdon,,100023034184,E09000017,Ruislip,E05013577,51.57749759,-0.426875733,509104.8929000003,187686.79609999992
Golders Green ,,,,Barnet,,200049056,E09000003,Childs Hill,E05013631,51.57425403,-0.200179203,524821.3454999998,187688.24689999968
Eastcote Library,,,,Hillingdon,,100023034643,E09000017,Eastcote,E05013567,51.57987055,-0.399015966,511029.53079999983,187992.54839999974
Robert Jeyes Community Library,,,,Barking and Dagenham,,100101901,E09000002,Whalebone,E05014071,51.57212135,0.144638198,548721.4527000003,188095.71700000018
Stroud Green and Harringay Library,,,,Haringey,,100023191010,E09000014,Harringay,E05013590,51.57704541,-0.104800835,531422.3614999996,188165.67650000006
Hornsey Library,,,,Haringey,,10022939468,E09000014,Crouch End,E05013588,51.5777629,-0.120331171,530344.2181000002,188217.6634999998
Wanstead Library,,,,Redbridge,,100022960264,E09000026,Wanstead Village,E05011255,51.57538383,0.026895284,540552.4265000001,188225.76710000075
Gayton,,,,Harrow,,10070263324,E09000015,Greenhill,E05013546,51.58118267,-0.330201874,515794.0245000003,188245.14059999958
Keith Axon Library,,,,Redbridge,,10090503264,E09000026,Chadwell,E05011237,51.57387616,0.122929149,547211.494,188247.01219999976
Gants Hill Library,,,,Redbridge,,10034912233,E09000026,Barkingside,E05011235,51.57712887,0.071676366,543649.8356999997,188506.8144000005
St Ann's Library,,,,Haringey,,100023153820,E09000014,St Ann's,E05013597,51.58041502,-0.081376662,533035.5839,188582.7631000001
Kingsbury,,,,Brent,,202078174,E09000005,Queensbury,E05013508,51.58552355,-0.274858006,519616.9955000002,188816.82939999923
Garden Suburb Community Library ,,,,Barnet,,200207760,E09000003,Garden Suburb,E05013641,51.58580095,-0.181741357,526067.0323000001,189003.94079999998
Gidea Park Library,,,,Havering,,100023216148,E09000016,Squirrels Heath,E05013985,51.57949079,0.20753372,553055.0109999999,189044.8509999998
Romford Central Library,,,,Havering,,100023211636,E09000016,St Edward's,E05013983,51.58027,0.185138066,551500.7624000004,189084.85119999945
Walthamstow Library,,,,Waltham Forest,,100022983155,E09000031,High Street,E05013891,51.5839726,-0.019438984,537316.0010000002,189092.82760000043
Hendon,,,,Barnet,,200222812,E09000003,Hendon,E05013643,51.58809113,-0.227360361,522900.4698000001,189180.9416000005
Pinner,,,,Harrow,,100023037203,E09000015,Pinner South,E05013556,51.59090052,-0.378912076,512395.2352999998,189249.82310000062
Marcus Garvey Library,,,,Haringey,,100023153172,E09000014,Tottenham Central,E05013601,51.58767917,-0.072436947,533633.6793999998,189406.87170000002
Kenton,,,,Harrow,,200000313248,E09000015,Kenton East,E05013551,51.59214569,-0.309678337,517187.7604,189496.95009999909
Marks Gate,,,,Barking and Dagenham,,10002167212,E09000002,Chadwell Heath,E05014058,51.58490561,0.137516448,548186.4005000005,189502.87219999917
Muswell Hill Library,,,,Haringey,,100023143844,E09000014,Muswell Hill,E05013594,51.59062359,-0.141789878,528821.0447000004,189609.82890000008
Wealdstone,,,,Harrow,,200004437046,E09000015,Wealdstone South,E05013562,51.59364474,-0.333374798,515542.5837000003,189625.95309999958
Clayhall Library,,,,Redbridge,,100023051395,E09000026,Clayhall,E05011239,51.58979452,0.051056985,542181.6595999999,189874.96719999984
East Finchley,,,,Barnet,,200061457,E09000003,East Finchley,E05013636,51.59342094,-0.165973843,527138.0717000002,189878.61339999922
Wood Street Library,,,,Waltham Forest,,200001418727,E09000031,Wood Street,E05013903,51.59105708,-0.002843915,538444.1695999997,189911.9583999999
Wood Green Central Library and Customer Services,,,,Haringey,,100023178365,E09000014,Noel Park,E05013595,51.59502191,-0.108052332,531145.3619999997,190158.9014999997
Fullwell Cross Library,,,,Redbridge,,10013585783,E09000026,Fairlop,E05011242,51.59269709,0.08689642,544654.9606999997,190267.99479999952
Higham Hill Library,,,,Waltham Forest,,100022981657,E09000031,William Morris,E05013902,51.59527813,-0.025878336,536836.0096000005,190338.01259999909
Northwood Hills Library,,,,Hillingdon,,100023037608,E09000017,Northwood Hills,E05013575,51.60229864,-0.406724744,510441.03949999996,190474.96729999967
Alexandra Park Library,,,,Haringey,,100023179968,E09000014,Alexandra Park,E05013585,51.59833448,-0.135207795,529255.1144000003,190478.92610000074
Church End ,,,,Barnet,,200218220,E09000003,Finchley Church End,E05013639,51.59932321,-0.195695662,525063.1742000002,190483.7003000006
Harefield Library,,,,Hillingdon,,100023564754,E09000017,Harefield Village,E05013568,51.60389981,-0.481377327,505267.4121000003,190543.0418999996
South Woodford Library and Gym,,,,Redbridge,,10034922615,E09000026,Churchfields,E05011238,51.59663025,0.023571198,540256.7388000004,190582.0691999998
Colindale,,,,Barnet,,200222825,E09000003,Colindale North,E05013632,51.60129207,-0.243478885,521748.6624999996,190622.03690000065
South Friern ,,,,Barnet,,200147125,E09000003,Friern Barnet,E05013640,51.59993455,-0.146935286,528438.3924000002,190636.2092000004
Harold Wood Library,,,,Havering,,100023216526,E09000016,Harold Wood,E05013973,51.59401788,0.237108698,555054.6562999999,190722.55220000073
Burnt Oak ,,,,Barnet,,200155264,E09000003,Burnt Oak,E05013630,51.60276504,-0.261638438,520487.20660000015,190755.83440000005
Collier Row Library,,,,Havering,,100023217675,E09000016,Mawneys,E05013978,51.59796672,0.162482974,549872.9445000002,191006.04509999976
Coombes Croft Library,,,,Haringey,,100023165934,E09000014,Northumberland Park,E05013596,51.60315254,-0.066697867,533985.7399000004,191138.0895000007
Northwood Library,,,,Hillingdon,,100023564110,E09000017,Northwood,E05013574,51.61183903,-0.423276417,509271.9024,191511.06770000048
Woodford Green Library,,,,Redbridge,,200001843478,E09000026,Monkhams,E05011249,51.6070902,0.033954993,540943.5236999998,191765.18950000033
Hale End Library,,,,Waltham Forest,,100023583807,E09000031,Hatch Lane & Highams Park North,E05013890,51.60870578,0.002769562,538779.2702000001,191885.22839999944
Hainault Library,,,,Redbridge,,10034923013,E09000026,Hainault,E05011245,51.60753869,0.105766669,545914.4074999997,191955.84190000035
Friern Barnet Community Library ,,,,Barnet,,200044867,E09000003,Friern Barnet,E05013640,51.61303719,-0.151842928,528061.6743999999,192084.68649999984
Fore Street,,,,Enfield,,207015248,E09000010,Upper Edmonton,E05013694,51.61166506,-0.063707118,534167.7696000002,192090.20229999907
Mill Hill ,,,,Barnet,,200057669,E09000003,Mill Hill,E05013645,51.61488958,-0.241490103,521850.0482000001,192137.49230000004
Harold Hill Library,,,,Havering,,100023217029,E09000016,Heaton,E05013975,51.60723241,0.220053539,553828.756,192155.93239999935
Edgware ,,,,Barnet,,200220766,E09000003,Edgware,E05013637,51.61577734,-0.272427097,519705.9611999998,192185.21880000085
Angel Raynham,,,,Enfield,,207017246,E09000010,Upper Edmonton,E05013694,51.61259183,-0.059377369,534464.8081999999,192201.21979999915
Bowes Road,,,,Enfield,,207045509,E09000010,New Southgate,E05013686,51.61492809,-0.129038125,529635.1849999996,192335.1414999999
Stanmore,,,,Harrow,,100023038856,E09000015,Stanmore,E05013560,51.61793485,-0.310063717,517094.7209000001,192364.17950000055
Palmers Green,,,,Enfield,,207015887,E09000010,Palmers Green,E05013688,51.61508369,-0.109010668,531021.2889999999,192388.14650000073
Millfield House,,,,Enfield,,207180891,E09000010,Haselbury,E05013682,51.61589454,-0.079736045,533045.6374000004,192531.21910000034
North Finchley ,,,,Barnet,,200097082,E09000003,Woodhouse,E05013651,51.61807536,-0.174310929,526492.1183000002,192605.8501999993
South Chingford Community Library,,,,Waltham Forest,,100023000149,E09000031,Larkswood,E05013894,51.61609652,-0.016176907,537445.0889999997,192671.31409999914
Edmonton Green,,,,Enfield,,207189578,E09000010,Lower Edmonton,E05013685,51.62339871,-0.056459901,534634.8344999999,193408.34080000035
Winchmore Hill,,,,Enfield,,207036897,E09000010,Highfield,E05013683,51.62790941,-0.096829091,531827.4518999998,193836.3376000002
Osidge,,,,Barnet,,200140830,E09000003,Brunswick Park,E05013629,51.62982049,-0.147457177,528317.9741000002,193958.7725000009
Southgate Circus,,,,Enfield,,207180633,E09000010,Southgate,E05013692,51.62989232,-0.126731632,529752.1550000003,194003.33819999918
North Chingford Library,,,,Waltham Forest,,100022999962,E09000031,Chingford Green,E05013885,51.63115177,0.0044664,538828.2797999997,194384.51810000092
Ridge Avenue,,,,Enfield,,207111058,E09000010,Bush Hill Park,E05013676,51.63568138,-0.080359974,532944.5667000003,194730.44959999993
East Barnet ,,,,Barnet,,200016111,E09000003,East Barnet,E05013635,51.64389091,-0.159901578,527417.2960000001,195501.71590000018
John Jackson,,,,Enfield,,207040251,E09000010,Southbury,E05013691,51.64493374,-0.064906253,533986.6628999999,195787.53779999912
Ponders End,,,,Enfield,,207000261,E09000010,Ponders End,E05013689,51.64472766,-0.045949157,535298.8301999997,195799.58249999955
Oakwood,,,,Enfield,,207148238,E09000010,Oakwood,E05013687,51.64834202,-0.127561284,529642.1266999999,196053.56799999997
Enfield Town,,,,Enfield,,207011262,E09000010,Town,E05013693,51.65119271,-0.084620218,532604.4764999999,196447.61480000056
Chipping Barnet ,,,,Barnet,,200107378,E09000003,High Barnet,E05013644,51.65565921,-0.203165618,524391.8092,196735.8892000001
Enfield Highway,,,,Enfield,,207035798,E09000010,Brimsdown,E05013674,51.65843232,-0.045865671,535263.8262999998,197323.72000000067
Enfield Island Village,,,,Enfield,,207193973,E09000010,Enfield Lock,E05013680,51.66794853,-0.014837634,537381.1144000003,198439.89120000042
Ordnance Unity Centre,,,,Enfield,,207144176,E09000010,Enfield Lock,E05013680,51.67157982,-0.037720477,535787.9117,198800.8953000009
Bullsmoor,,,,Enfield,,207178047,E09000010,Bullsmoor,E05013675,51.67592229,-0.047890153,535071.8165999996,199264.94639999978
West Norwood Library and Picturehouse,,,,Lambeth,,10000446790,E09000022,Knight's Hill,E05014106,51.43228329,-0.102510989,531998.3444999997,172072.09569999948
Slade Centre Library ,,,,Greenwich,,,E09000011,Plumstead Common,E05014088,51.4788,0.08513,544893.5957000004,177599.18329999968
Highgate Library ,1 Shepherds Hill,,,Haringey,,,E09000014,Highgate,E05013592,51.57714,-0.14374,528724.0232999995,188106.96079999954
Cat and Mouse Library,,,,Islington,,,E09000019,Tufnell Park,E05013713,51.55279,-0.12496,530094.6782999998,185432.34699999914
Shepherds Bush Library ,6 Wood Lane,,,Hammersmith and Fulham,,,E09000013,Shepherd's Bush Green,E05013748,51.5059,-0.22427,523336.56269999966,180046.27119999938
Greenhill,"Perceval Square, College Road",,,Harrow,,10094044460,E09000015,Greenhill,E05013546,51.57948,-0.33585,515407.01400000043,188046.87739999965
