name,address1,address2,address3,borough_name,website,os_addressbase_uprn,borough_code,ward_2022_name,ward_2022_code,latitude,longitude,easting,northing
 Kiln Theatre ,269 Kilburn High Road,,,Brent,http://www.tricycle.co.uk,202079064,E09000005,Kilburn,E05013503,51.54331474,-0.200005991,524918.0117,184248.0021
2 Northdown ,2 Northdown Street,,,Islington,https://www.2northdown.com/about/,5300068234,E09000019,Caledonian,E05013700,51.53134606,-0.119204506,530555.0121,183058.003
3 Mills Studios,3 Mill Lane,,,Newham,http://www.3mills.com,10009018097,E09000025,Stratford,E05013924,51.52684581,-0.006276453,538401.0093,182764.9982
808 Studios,Stephen House,1B Darnely Road,,Hackney,www.808studios.co.uk,1.00E+11,E09000012,Homerton,E05009376,51.54383,-0.054437649,535010.1355,184563.8162
Abacus Arts,2a Browning Street,,,Southwark,http://www.abacus-arts.org.uk,2.00E+11,E09000028,North Walworth,E05011107,51.48986355,-0.095862668,532294.0117,178487.0021
Academy Mews Dance Studios,15 Pratt Mews,,,Camden,https://www.academydancestudios.com/studio-hire-london-contact/,5088505,E09000007,Regent's Park,E05013668,51.53718037,-0.140521526,529060.0119,183669.0023
ACS Dance Centre,66 Albert Rd,,,Havering,http://www.anthonycliffordstudios.co.uk,1.00E+11,E09000016,St Alban's,E05013981,51.57360449,0.18990651,551853.3222,188353.5517
Albany Centre and Theatre,1A Douglas Way,,,Lewisham,http://www.thealbany.org.uk,1.00E+11,E09000023,Deptford,E05013719,51.4778771,-0.027409247,537082.0081,177280.0036
Aldwych Theatre,49 Aldwych,,,Westminster,https://www.nederlander.co.uk/aldwych-theatre,1.00E+11,E09000033,St James's,E05013806,51.51307629,-0.118862085,530631.0117,181027.0027
Alford House,Aveline Street,Kennington,,Lambeth,http://www.alfordhouse.org.uk/site/room-hire.php,1.00E+11,E09000022,Vauxhall,E05014117,51.48799223,-0.114176555,531028.0127,178246.0027
Alleyn's School,Townley Road,,,Southwark,https://www.alleyns.org.uk,2.00E+11,E09000028,Goose Green,E05011103,51.45478129,-0.081993244,533359.0119,174611.0024
American Musical Theatre Academy ,28 Wallis Road,,,Hackney,https://theamta.com/gb/,10008349004,E09000012,Hackney Wick,E05009374,51.54417299,-0.024787004,537065.0119,184657.0024
Anatomie Studio,Unit 113 ,Arch 17 Station Passage ,Peckham,Southwark,https://anatomiestudio.com/hire-us/,See notes,E09000028,Nunhead & Queen's Road,E05011108,51.47487,-0.05658,535065.3137,176891.4157
Arcola Theatre,24 Ashwin Street,,,Hackney,http://www.arcolatheatre.com,10008321023,E09000012,Dalston,E05009370,51.54691315,-0.074947347,533579.0089,184869.0052
Arts Depot,5 Nether Street,,,Barnet,http://www.artsdepot.co.uk,200196017,E09000003,West Finchley,E05013648,51.61281644,-0.176699509,526341.354,192016.8907
Arts Theatre,6-7 Great Newport Street,,,Westminster,https://artstheatrewestend.co.uk,1.00E+11,E09000033,St James's,E05013806,51.51211816,-0.127548734,530031.0117,180905.0027
Artsadmin,28 Commercial Street,,,Tower Hamlets,http://www.toynbeehall.org.uk,6722403,E09000030,Spitalfields & Banglatown,E05009333,51.51668037,-0.072230154,533856.012,181512.0026
artsdepot,5 Nether St, Tally Ho Corner, North Finchley,Barnet,https://www.artsdepot.co.uk/private-rooms-studios,200198999,E09000003,West Finchley,E05013648,51.61297,-0.17686,526329.8165,192033.6903
Aspire @ Southfields,337 Merton Road,,,Wandsworth,https://www.aspiresouthfields.com/dance-studio,See notes,E09000032,Southfields,E05014021,51.44463,-0.19757,525357.163,173278.2481
Ballet Boyz  - Studio 52,52a Canbury Park Road,,,Kingston upon Thames,http://www.balletboyz.com,128037963,E09000021,Kingston Gate,E05013937,51.4130041,-0.298258301,518442.0121,169594.0025
Barking Road Community Centre: J?î?á?ñs Dance Factory,633 Barking Rd,,,Newham,https://www.newham.gov.uk/Pages/ServiceChild/Barking-Road-community-centre.aspx,10008983357,E09000025,Plaistow North,E05013918,51.52830003,0.032611893,541094.0123,183001.0022
Battersea Spanish,Units 120-121,99-109 Lavender Hill,,Wandsworth,https://hirespace.com/Spaces/London/162219/Battersea-Spanish/La-Unit/Events,10091500694,E09000032,Lavender,E05014014,51.46500578,-0.154802128,528272.0119,175618.0017
bbo Dance,Juniper Drive,Battersea Reach,,Wandsworth,https://bbo.dance/about-us/facilities/espinosa-studio,10070242030,E09000032,St Mary's,E05014018,51.46505672,-0.183407032,526285.012,175574.0027
Beck Theatre,Grange Road,Hayes,Middlesex,Hillingdon,https://becktheatre.org.uk/Online/,10003001360,E09000017,Wood End,E05013582,51.5210498,-0.421800756,509592.0114,181417.0022
Bernie Grant Arts Centre,Town Hall Approach,,,Haringey,http://www.berniegrantcentre.co.uk,10003985252,E09000014,Tottenham Central,E05013601,51.58747503,-0.073075943,533590.0122,189383.0024
"BGM Entertainment. Address: The Basement, 73 St John ",The Basement,73 St John Street,Farringdon,Islington,http://bgmentertainment.co.uk/dance-recording-studio.php,5300084516,E09000019,Clerkenwell,E05013702,51.5214824,-0.10198168,531778.0119,181992.0011
Bhavan Centre,4a Castletown Road,,,Hammersmith and Fulham,http://www.bhavan.net,34140084,E09000013,West Kensington,E05013751,51.4897635,-0.207043433,524576.0149,178281.0033
Bishop Justus Church of England School,Magpie Hall Lane,,,Bromley,http://www.bishopjustus.bromley.sch.uk,10013149314,E09000006,Bromley Common & Holwood,E05013990,51.38245296,0.045098174,542413.0114,166807.0021
Bishopsgate Institute, 230 Bishopsgate,,,City of London,http://www.bishopsgate.org.uk/form.aspx?id=14,1.00E+11,E09000001,Bishopsgate,E05009292,51.5187111,-0.079250559,533363.0118,181725.0025
Blackheath Halls,23 Lee Road,,,Greenwich,http://www.blackheathhalls.com,1.00E+11,E09000011,Blackheath Westcombe,E05014073,51.46437941,0.009627334,539695.0136,175849.0021
Bloomsbury Central Baptist Church,235 Shaftesbury Avenue,,,Camden,https://www.bloomsbury.org.uk/roomevent-booking/,5087200,E09000007,Holborn & Covent Garden,E05013662,51.516428,-0.12671995,530076.2443,181385.7326
Bloomsbury Studio,15 Gordon street,,,Camden,https://www.ucl.ac.uk/culture/bloomsbury-theatre-studio,5007085,E09000007,Bloomsbury,E05013653,51.525068,-0.13278042,529631.2384,182335.7648
Brentside,377 Greenford Avenue,,,Ealing,http://www.brentsidehigh.ealing.sch.uk,12141082,E09000009,North Hanwell,E05013529,51.52655631,-0.33995693,515256.0113,182155.0025
Brixton Community Base,32 Talma Road,,,Lambeth,http://www.brixtoncommunitybase.org,1.00E+11,E09000022,Brixton Windrush,E05014098,51.45865602,-0.110707061,531353.0118,174990.0026
Brixton House,385 Coldharbour Lane,Brixton,,Lambeth,https://brixtonhouse.co.uk/,10094957510,E09000022,Brixton Windrush,E05014098,51.461917,-0.11110208,531316.2185,175351.9145
Brockley Jack Studio Theatre,410 Brockley Road,,,Lewisham,http://www.brockleyjack.co.uk,1.00E+11,E09000023,Crofton Park,E05013718,51.45363918,-0.039076935,536344.0132,174563.003
Camden Arts Centre,47 Arkwright Road,,,Camden,https://www.camdenartscentre.org,5090703,E09000007,Frognal,E05013657,51.55125207,-0.183465426,526043.012,185159.0029
Camden People's Theatre,58-60 Hampstead Road,,,Camden,https://www.cptheatre.co.uk,5158137,E09000007,Regent's Park,E05013668,51.52640081,-0.138423624,529236.0113,182474.0024
Canada Water Culture Space,21 Surrey Quays Road,,,Southwark,http://canadawaterculturespace.org.uk/contact-us,10090284129,E09000028,Rotherhithe,E05011112,51.49780959,-0.049153611,535513.012,179456.0019
Canada Water Studios Ltd,Vancouver House,Surrey Quays Road,,Southwark,http://www.canadawaterstudios.com/contact/,10090284887,E09000028,Rotherhithe,E05011112,51.49914132,-0.048590555,535548.142,179605.1323
Capital City Academy,Doyle Gardens,Willesden,,Brent,http://www.capitalcityacademy.org/224/hire-our-facilities,202191532,E09000005,Roundwood,E05013509,51.53996598,-0.232901653,522646.0122,183820.0018
Cardboard Citizens,77A Greenfield Road,,,Tower Hamlets,https://www.cardboardcitizens.org.uk/hire-our-space,6011593,E09000030,Whitechapel,E05009336,51.51639219,-0.065655375,534313.0121,181492.0037
Cecil Sharp House,2 Regent's Park Road,Cecil Sharp House,,Camden,https://www.cecilsharphouse.org,5066674,E09000007,Primrose Hill,E05013667,51.53810212,-0.149337866,528446.0119,183756.0026
Central Saint Martins,1 Granary Square,,,Camden,http://www.arts.ac.uk/csm/,5162950,E09000007,King's Cross,E05013666,51.53648107,-0.124270325,530189.0122,183620.0033
Centre 151,151 Whiston Road,,,Hackney,http://www.centre151.com/contact/,1.00E+11,E09000012,Haggerston,E05009375,51.5351763,-0.070746271,533904.7001,183571.513
Chantry Studios,20 Chantry Lane,,,Bromley,http://chantry-studios.co.uk,1.00E+11,E09000006,Bromley Common & Holwood,E05013990,51.39213619,0.034346311,541635.0122,167863.002
Chat's Palace,42 Brooksby's Walk,,,Hackney,http://chatspalace.com,1.00E+11,E09000012,King's Park,E05009379,51.55026393,-0.042683326,535806.0078,185301.0029
Chats Palace Arts Centre ,42-44 Brooksby's Walk,London,,Hackney,https://chatspalace.com/,1.00E+11,E09000012,King's Park,E05009379,51.550263,-0.042710633,535804.1175,185300.8489
Chelsea Theatre,7 World's End Place,King's Road,,Kensington and Chelsea,http://www.chelseatheatre.org.uk/venue-hire/,217005389,E09000020,Chelsea Riverside,E05009391,51.48164362,-0.17963759,526501.0121,177425.0021
Chicken Shed,290 Chase Side,,,Enfield,http://www.chickenshed.org.uk,207078080,E09000010,Cockfosters,E05013678,51.64443614,-0.145241925,528430.0095,195588.0029
Chisenhale Dance Space,64-84 Chisenhale Road,,London,Tower Hamlets,http://www.chisenhaledancespace.co.uk,6719953,E09000030,Bow West,E05009320,51.53308803,-0.039708154,536063.4515,183396.5342
Churchill Theatre: Magpie Dance,118 High Street,,,Bromley,http://www.magpiedance.org.uk,1.00E+11,E09000006,Bromley Town,E05013991,51.403765,0.014474247,540217.0182,169118.0067
City Dance Academy,Gainsborough Studios,"Suite A, North",1 Poole Street,Hackney,https://citydanceacademy.co.uk/page23-htm/,10008289341,E09000012,Hoxton East & Shoreditch,E05009377,51.536122,-0.088839378,532647.1786,183643.6904
Claremont Project Upper Hall,24-27 White Lion Street,,,Islington,https://www.claremont-project.org,5300097468,E09000019,Barnsbury,E05013698,51.53250488,-0.108501535,531294.0128,183205.9999
Clarence Mews : Studio Space,40 Clarence Mews,,,Hackney,https://clarencemews.wordpress.com/about/,2.00E+11,E09000012,Homerton,E05009376,51.55118481,-0.054803845,534963.015,185381.0057
Clean Break,2 Patshull Road,,,Camden,http://www.cleanbreak.org.uk,5001418,E09000007,Kentish Town South,E05013664,51.54692186,-0.140672301,529022.012,184752.0029
Club Baltimore Gym,35 Harbour Exchange Square,,,Tower Hamlets,https://hirespace.com/Spaces/London/139397/Club-Baltimore/Yoga-Studio/Other,,E09000030,Blackwall & Cubitt Town,E05009318,51.49685588,-0.015913616,537823.0093,179412.0055
Cockpit Theatre,5 Gateforth Street,,,Westminster,http://www.thecockpit.org.uk,1.00E+11,E09000033,Church Street,E05013794,51.52449748,-0.169480819,527087.0124,182208.0032
"Compass Theatre, Hillingdon",45 Glebe Ave,,,Hillingdon,http://www.hillingdontheatres.uk,1.00E+11,E09000017,Ickenham & South Harefield,E05013573,51.56218624,-0.440386739,508205.0119,185964.002
Concorde Centre,7 Kingsmead Way,,,Hackney,https://www.younghackney.org/youth-hub/concorde/,1.00E+11,E09000012,King's Park,E05009379,51.55343146,-0.034195035,536385.0095,185669.0023
Conway Hall,25 Red Lion Square,,,Camden,https://conwayhall.org.uk,5048256,E09000007,Holborn & Covent Garden,E05013662,51.51979404,-0.118311294,530650.0116,181775.0035
Courtyard Theatre,40 Pitfield Street,,,Hackney,http://www.thecourtyard.org.uk,1.00E+11,E09000012,Hoxton East & Shoreditch,E05009377,51.52787925,-0.083377075,533050.0122,182737.0012
Dance Attic,368 North End Road,,,Hammersmith and Fulham,https://www.danceattic.com,34069847,E09000013,Walham Green,E05013749,51.48115895,-0.199502938,525123.0114,177337.0026
Dance Company Studios,76 High Street,,,Bromley,http://www.dancecompanystudios.co.uk,1.00E+11,E09000006,Beckenham Town & Copers Cope,E05013987,51.40833629,-0.025341805,537434.0116,169551.0035
Dance Research Studio,23 Orsman Road,,,Hackney,http://www.danceresearchstudio.com,10008237591,E09000012,Hoxton East & Shoreditch,E05009377,51.53614877,-0.078761295,533346.0109,183664.9985
Dance Umbrella - Somerset House, Somerset House,West Wing,,Westminster,http://www.danceumbrella.co.uk,1.00E+11,E09000033,St James's,E05013806,51.51102034,-0.117952415,530700.0119,180800.0022
Danceworks,16 Balderton Street,,,Westminster,http://danceworks.net,1.00E+11,E09000033,West End,E05013808,51.51318751,-0.152452465,528300.0116,180980.0024
David Game College,31 Jewry Street,London,,City of London,https://davidgameevents.com/venues-for-hire-in-central-london/dance-studio-for-hire/,95514552,E09000001,Tower,E05009310,51.512846,-0.076482648,533572.191,181077.8446
Deptford Lounge,9 Giffin St,,,Lewisham,http://www.thealbany.org.uk/hireus/36/Room-Hire,10023234998,E09000023,Deptford,E05013719,51.47770742,-0.024277123,537300.0094,177267.0024
Dominion Theatre,268-269 Tottenham Court Rd,,,Camden,https://www.nederlander.co.uk/dominion-theatre,5083050,E09000007,Bloomsbury,E05013653,51.51696266,-0.129641703,529872.0115,181440.0029
Dragon Hall ,17 Stukeley Street,,,Camden,https://www.dragonhall.org.uk/main-hall/,5128852,E09000007,Holborn & Covent Garden,E05013662,51.5166264,-0.122665013,530357.0115,181415.0031
Duet Dance ,Royston Hall,85 Royston Rd,,Bromley,https://duetdance.co.uk/,1.00E+11,E09000006,Penge & Cator,E05014002,51.409465,-0.050843277,535657.1836,169629.0549
East London Dance,The Talent House,3 Sugar House Lane,,Newham,https://www.eastlondondance.org/our-services/#studio_hire,See notes,E09000025,Stratford,E05013924,51.53189,-0.00886,538206.5341,183321.036
Electric Brixton,Town Hall Parade,,,Lambeth,http://electricbrixton.uk.com,2.00E+11,E09000022,Brixton Acre Lane,E05014095,51.46019347,-0.116833605,530923.0116,175150.002
Elthorne Park High School,Westlea Road,,,Ealing,http://www.ephs.ealing.sch.uk,12141191,E09000009,Northfield,E05013530,51.50062773,-0.330843093,515954.0113,179286.0038
Etcetera Theatre,265 Camden High Street,,,Camden,http://www.etceteratheatre.com,5007472,E09000007,Camden Town,E05013655,51.54059409,-0.144275957,528790.0122,184042.0029
Evelyn Grace Academy,255 Shakespeare Road,,,Lambeth,http://evelyngraceacademy.org/ega-dance-studio,10023851851,E09000022,Brixton Windrush,E05014098,51.46083334,-0.10353452,531845.0119,175245.0019
Expressive Arts Leyton,Leyton Sixth Form College,Essex Rd,,Waltham Forest,http://www.leyton.ac.uk,2.00E+11,E09000031,Forest,E05013887,51.57606761,-0.002867702,538488.0104,188245.0018
Fairfield Hall,71 Park Lane,,,Croydon,https://fairfield.co.uk,1.00E+11,E09000008,Fairfield,E05011468,51.37252439,-0.095778074,532639.0121,165439.0017
Fitztrovia Community Centre,2 Foley Street,,,Westminster,https://www.fitzroviacommunitycentre.org/room-hire,10033619463,E09000033,West End,E05013808,51.520181,-0.13877482,529229.2517,181781.7326
Flow Dance London,1-3 Brixton Rd,Unit 3,,Lambeth,https://flowdance-london.co.uk,10090196810,E09000022,Myatt's Fields,E05014107,51.4804897,-0.109546045,531371.0113,177420.0019
Fourth Monkey ,Monkey House,97-101 Seven Sisters Rd,,Islington,http://www.fourthmonkey.co.uk,5300081823,E09000019,Finsbury Park,E05013703,51.56052222,-0.114970978,530765.0117,186310.0015
Frame Victoria ,4 Bridge Place ,,,Westminster,https://moveyourframe.com/pages/private-hire,10033603232,E09000033,Pimlico North,E05013802,51.49420724,-0.142415676,529050.0139,178887.0024
Futunity UK,Hillingdon sports and leisure complex ,Oxford Road,Uxbridge ,Hillingdon,http://futunityuk.com/,1.00E+11,E09000017,Uxbridge,E05013580,51.550992,-0.46725746,506368.5615,184679.7246
Graeae Theatre Company Bradbury Studios,138 Kinglsand Road,,,Hackney,www.graeae.org/,10008323888,E09000012,Haggerston,E05009375,51.53279852,-0.076811706,533491.0127,183295.999
Gravity Circus Urban Venue,Unit B05 Cromwell Industrial Estate,Staffa Road,,Waltham Forest,https://www.tagvenue.com/rooms/london/5638/gravity-circus-urban-venue/unit-b05,10091184920,E09000031,Lea Bridge,E05013895,51.57096877,-0.042905956,535729.0115,187603.0017
Greenside Community Centre,24 Lilestone Street,,,Westminster,https://www.westminster.gov.uk/leisure-libraries-and-community/community-halls/greenside-community-centr,10033625021,E09000033,Church Street,E05013794,51.52533462,-0.166303379,527305.0924,182306.613
Greenwich Dance,Charlton House,Charlton Road,,Greenwich,https://greenwichdance.org.uk/,10010224639,E09000011,Charlton Village & Riverside,E05014075,51.480557,0.037748523,541598.2073,177701.9063
Hackney Empire,291 Mare Street,,,Hackney,https://hackneyempire.co.uk/hire/spaces/,1.00E+11,E09000012,Hackney Central,E05009372,51.54552162,-0.055477861,534933.0131,184750.0075
Hackney Showroom,4 Murrain Road,Kings Crescent Estate, ,Hackney,https://www.hackneyshowroom.com/,10008343497,E09000012,Brownswood,E05009367,51.56253,-0.092479079,532318.2026,186573.7441
Haileybury Centre,Ben Jonson Road ,,,Tower Hamlets,https://www.tagvenue.com/rooms/london/5518/haileybury-centre/dance-studio,6702177,E09000030,St Dunstan's,E05009329,51.51759962,-0.042498799,535916.0122,181669.0034
Half Moon Young People's Theatre,43 White Horse Road,,,Tower Hamlets,http://www.halfmoon.org.uk,6044554,E09000030,St Dunstan's,E05009329,51.51325269,-0.041215197,536018.0121,181188.0042
Harmony Hall,10 TRURO ROAD,,,Waltham Forest,https://www.harmonyhall.org.uk/,10009143437,E09000031,High Street,E05013891,51.584048,-0.026088243,536855.146,189088.7538
Harris Academy Chobham,40 Cheering Ln,,,Newham,http://www.chobhamacademy.org.uk,10090758476,E09000025,Stratford Olympic Park,E05013925,51.54925262,-0.007030376,538280.8263,185255.2332
Harris Academy Purley,Kendra Hall Road,,,Croydon,http://www.harrispurley.org.uk,1.00E+11,E09000008,Purley Oaks & Riddlesdown,E05011477,51.35324715,-0.10931616,531752.0118,163271.0019
Harrow Arts Centre,171 Uxbridge Road,,,Harrow,,2.00E+11,E09000015,Hatch End,E05013549,51.60848854,-0.363803161,513398.0118,191229.0015
Havering College,42 Ardleigh Green Road,,,Havering,https://www.ncclondon.ac.uk/havering-campuses,1.00E+11,E09000016,Squirrels Heath,E05013985,51.58159506,0.221273338,553999.8372,189307.6945
Her Majesty's Theatre,57 Haymarket,,,Westminster,,1.00E+11,E09000033,St James's,E05013806,51.50812453,-0.13200693,529733.0122,180453.0023
Higham Hill Hub,Higham Hill Park,Hecham Close,,Waltham Forest,http://highamhillhub.org.uk,10091185782,E09000031,Higham Hill,E05013892,51.59712882,-0.037580749,536020.0136,190522.0044
Hoxton Hall,130 Hoxton Street,,,Hackney,www.hoxtonhall.co.uk/category/hire/,1.00E+11,E09000012,Hoxton East & Shoreditch,E05009377,51.53177145,-0.0799838,533274.0127,183175.999
Husky Studios,29a Amelia Street,,,Southwark,www.huskystudios.co.uk,2.00E+11,E09000028,Newington,E05011105,51.48956364,-0.098439231,532116.0116,178449.0029
Innovation Dance Studios Finchley,2A Lodge Lane,,,Barnet,https://www.innovationdancestudios.co.uk/finchley-dance-studio/location/,10091041343,E09000003,West Finchley,E05013648,51.61634745,-0.177296442,526290.2332,192408.533
"Innovation Dance Studios, Ealing",96 Pitshanger Lane,,,Ealing,www.innovationdancestudios.co.uk/ealing-dance-studio/studio-hire/,12185360,E09000009,Pitshanger,E05013535,51.52622881,-0.313832651,517069.0114,182160.0041
Intimate Theatre,516 Green Lanes,,,Enfield,http://www.smptheatre.co.uk/faqs/the-intimate-theatre/,207035876,E09000010,Winchmore Hill,E05013696,51.62419102,-0.10284236,531422.0149,193412.0014
Isaac Newton Academy,1 Cricklefield Place,,,Redbridge,http://www.isaacnewtonacademy.org,10090503930,E09000026,Ilford Town,E05011246,51.56180574,0.091602726,545079.2121,186842.1919
Islington Arts Factory,2 Parkhurst Road,Islington,,Islington,www.islingtonartsfactory.org,5300071066,E09000019,Holloway,E05013706,51.553804,-0.12296338,530230.1997,185548.6574
Jacksons Lane,269A Archway Road,,,Haringey,www.jacksonslane.org.uk/space-hire,1.00E+11,E09000014,Highgate,E05013592,51.57668107,-0.145404162,528610.0108,188053.0012
Jerwood Space,171 Union Street,,,Southwark,www.jerwoodspace.co.uk/rehearsals/,2.00E+11,E09000028,Borough & Bankside,E05011095,51.50362093,-0.099093114,532030.0111,180011.0024
JW3 (Jewish Community Centre London),341-351 Finchley Road,,,Camden,https://www.jw3.org.uk,5164899,E09000007,West Hampstead,E05013671,51.55083,-0.18448,525973.8383,185110.3209
Kelechnekoff Studio,Sojourner Truth Centre,161 Sumner Road,,Southwark,www.kelechnekoff.com,2.00E+11,E09000028,Peckham,E05011110,51.47796737,-0.07337388,533890.0118,177205.0019
Kellys Dance Studio,12 Park Road,,,Richmond upon Thames,https://www.kellysdance.co.uk/,1.00E+11,E09000027,Hampton Wick & South Teddington,E05013780,51.41315475,-0.312403174,517458.0132,169588.0024
Kenneth More Theatre,Kenneth More Road,,,Redbridge,www.kmtheatre.co.uk/hire-us/,1.00E+11,E09000026,Ilford Town,E05011246,51.55867744,0.075240584,543955.0115,186462.0013
Kentish Town Community Centre,17 Busby Place,,,Camden,https://www.ktcc.org.uk/room-hire,5026106,E09000007,Kentish Town South,E05013664,51.5485436,-0.132370401,529593.012,184947.0019
Kindred Yoga,Norfolk House,Brookmill Road,Deptford,Lewisham,https://www.kindredyogalife.com/studio-hire,1.00E+11,E09000023,Brockley,E05013716,51.474104,-0.02396932,537332.2052,176866.8838
"King Charles Court, Old Royal Naval College (Trinity ",King William Walk,,,Greenwich,https://www.trinitylaban.ac.uk/whats-on/our-venues/king-charles-court,10010216996,E09000011,Greenwich Park,E05014081,51.48358702,-0.007171472,538470.0087,177953.0062
Kingston University,53-57 High Street,,,Kingston upon Thames,http://www.kingston.ac.uk,128008662,E09000021,Kingston Town,E05013938,51.40591238,-0.307809909,517796.0202,168789.9943
Landor Theatre,70 Landor Pub,,,Lambeth,http://www.thelandorpub.com,1.00E+11,E09000022,Clapham East,E05014100,51.46566493,-0.126053013,530267.0108,175742.0021
Langley Park Centre for the Performing Arts,Hawksbrook Lane,South Eden Park Road,Beckenham,Bromley,http://www.lpsb.org.uk,1.00E+11,E09000006,Kelsey & Eden Park,E05013999,51.38893001,-0.01894751,537937.0119,167405.0033
Leicester Square Theatre,6 Leicester Place,,,Westminster,http://www.leicestersquaretheatre.com,1.00E+11,E09000033,St James's,E05013806,51.5113401,-0.130073873,529858.0119,180814.0022
Lift Islington - Platform Theatre,2 Tiltman Place,,,Islington,http://www.platformislington.org.uk,10012794343,E09000019,Finsbury Park,E05013703,51.56142487,-0.115741604,530709.0119,186409.0012
Lilian Baylis Studio,183 Rosebery Avenue,,,Islington,http://www.sadlerswells.com/venue-hire/lilian-baylis-studio/,5300080050,E09000019,Clerkenwell,E05013702,51.52968382,-0.10587919,531484.0124,182897.0017
London Bubble,3-5 Elephant Lane,,,Southwark,http://www.londonbubble.org.uk,2.00E+11,E09000028,Rotherhithe,E05011112,51.50057,-0.05536,535074.0785,179751.4943
London Dance Academy,51 Central Street,,,Islington,http://londondanceacademy.co.uk,5300017733,E09000019,Bunhill,E05013699,51.52555915,-0.096622223,532138.0131,182454.9983
London Metropolitan University Graduate Centre,182-198 Holloway Rd,,,Islington,http://www.londonmet.ac.uk/contact-us/how-to-find-us/tower-building/graduate-centre/,5300047823,E09000019,Arsenal,E05013697,51.55147327,-0.110354203,531111.0116,185311.9951
London Performance Studios,"Unit 30, Penarth Centre",Penarth St,,Southwark,https://www.londonperformancestudios.com/,10009803448,E09000028,Old Kent Road,E05011109,51.48354,-0.05515,535138.9986,177858.1499
London School of Capoeira,Leeds Place,Unit 1-2,,Islington,http://londonschoolofcapoeira.com,5300055778,E09000019,Tollington,E05013712,51.56707204,-0.114613672,530771.0128,187039.0019
London Welsh Centre,157-163 Gray's Inn Road,,,Camden,http://www.londonwelsh.org,5083639,E09000007,King's Cross,E05013666,51.52493328,-0.116902823,530733.0119,182349.003
Lyric Theatre,29 Shaftesbury Avenue,,,Westminster,https://www.nimaxtheatres.com/lyric-theatre/,1.00E+11,E09000033,West End,E05013808,51.51127346,-0.133794809,529600.0122,180800.002
Menier Theatre,51-53 Southwark Street,,,Southwark,https://www.menierchocolatefactory.com/Online/default.asp,2.00E+11,E09000028,Borough & Bankside,E05011095,51.50466098,-0.094467554,532348.0113,180135.0022
Millenium Performing Arts,29 Thomas Street,,,Greenwich,http://www.mpacollege.co.uk,10010230583,E09000011,Woolwich Arsenal,E05014092,51.49073887,0.065694614,543506.6132,178888.5231
Mountview Theatre School,120 Peckham Hill Street,,,Southwark,https://www.mountview.org.uk,10094742520,E09000028,Peckham,E05011110,51.4748743,-0.069877256,534141.8816,176867.4522
National Ballet,Mulryan Centre for Dance,"41 Hopewell Square, Leamouth Peninsul",,Tower Hamlets,www.ballet.org.uk,6721048,E09000030,Blackwall & Cubitt Town,E05009318,51.512769,0.006426868,539325.109,181223.7836
National Circus,9 Coronet St,,,Hackney,http://www.nationalcircus.org.uk,1.00E+11,E09000012,Hoxton East & Shoreditch,E05009377,51.52755809,-0.082550204,533108.3021,182702.7918
NDT Broadgate,Floor 4,2 Finsbury Avenue,,City of London,https://newdiorama.com/ndt-broadgate,1.00E+11,E09000001,Bishopsgate,E05009292,51.519961,-0.08487465,532969.1944,181853.7575
New London Performing Arts Centre,76 St James Lane,,,Haringey,http://www.nlpac.co.uk,10003973500,E09000014,Muswell Hill,E05013594,51.58814492,-0.139625056,528978.0087,189338.0009
New Wimbledon Theatre,93 The Broadway,,,Merton,http://newwimbledontheatre.net,48008413,E09000024,Abbey,E05013810,51.41914644,-0.201365109,525162.9821,170437.9929
Newlands Community Hall,226 Stroud Crescent,,,Wandsworth,http://www.wandsworth.gov.uk/directory_record/148179/newlands_hall_putney_vale_clubroom/category/1125/cl,1.00E+11,E09000032,Roehampton,E05014017,51.43808068,-0.244376348,522122.012,172471.0027
NW7 Hub,Mill hill Library,Hartley Avenue,,Barnet,https://www.nw7hub.org.uk,10094710274,E09000003,Mill Hill,E05013645,51.615382,-0.24309943,521737.3226,192189.5796
Off The Rails,"Unit 8, Arches 14-16",8 Grant Road,Clapham Junction,Wandsworth,https://www.offtherails.studio,10091499620,E09000032,Falconbrook,E05014012,51.46522837,-0.170730754,527165.0119,175615.0014
Old Diorama Arts Centre ,210 Drummond St,,,Camden,http://www.diorama-arts.org.uk/studios.html,5169343,E09000007,Regent's Park,E05013668,51.52618894,-0.139239584,529180.0113,182449.0028
Old Red Lion,418 St John Street,,,Islington,https://www.oldredliontheatre.co.uk/theatre.html,5300085363,E09000019,St Peter's & Canalside,E05013711,51.53148185,-0.105847779,531481.0125,183097.001
Omeara,5 O'Meara Street,,,Southwark,https://www.omearalondon.com/spaces/the-siding/,10090751127,E09000028,Borough & Bankside,E05011095,51.50434302,-0.094264681,532363.0114,180100.0115
Omnibus Arts Centre,1 Northside Clapham Common,,,Lambeth,http://omnibus-clapham.org,1.00E+11,E09000022,Clapham Town,E05014102,51.46375804,-0.142413708,529136.0115,175501.0023
One KX,120 Cromer Street,,,Camden,https://www.ymca.co.uk/about/what-we-do/venue-room-hire,5086947,E09000007,King's Cross,E05013666,51.52750115,-0.124509806,530198.0117,182621.0027
Oxford House Theatre,87 Derbyshire Street,,,Tower Hamlets,http://www.oxfordhouse.org.uk,6089004,E09000030,St Peter's,E05009331,51.52636805,-0.061484047,534573.0115,182609.0039
Paddington Arts,32 Woodfield Road,,,Westminster,http://www.paddingtonarts.org.uk,1.00E+11,E09000033,Westbourne,E05013809,51.52306591,-0.200170735,524962.0125,181996.0031
Patidar House Studios,22 London Road,,,Brent,https://www.patidars.org/,202073653,E09000005,Wembley Hill,E05013515,51.55229548,-0.294982599,518309.0099,185089.0042
Pineapple Dance Studios,7 Langley Street,,,Westminster,https://www.pineapple.uk.com,10033583532,E09000033,St James's,E05013806,51.51341947,-0.125131723,530195.0116,181054.0028
Pinner Village Hall,11 Chapel Lane,,,Harrow,https://www.pinnervillagehall.org.uk,2.00E+11,E09000015,Pinner South,E05013556,51.59325663,-0.384014347,512036.0121,189504.0024
Pirate Studios - Hackney ,13 Rothbury Road,,,Tower Hamlets,https://pirate.com/en/locations/london-hackney/,6722124,E09000030,Bow East,E05009319,51.54218,-0.026689225,536939.0958,184431.8234
Pirate Studios - Wembley ,278 Abbeydale Road,,,Brent,https://pirate.com/en/locations/london-wembley/,202137355,E09000005,Alperton,E05013496,51.538754,-0.28468273,519058.4006,183599.8174
Pleasance,41 North Mews,,,Islington,https://www.pleasance.co.uk,10094608227,E09000019,Holloway,E05013706,51.54876851,-0.121673379,530334.012,184990.9996
Pole People & Dance Studio,"4th Floor, Templeton House",33-34 Chiswell St,,Islington,http://polepeople.co.uk,5300102337,E09000019,Bunhill,E05013699,51.52102043,-0.090699665,532562.0123,181960.9989
Polka Theatre for Children,240 The Broadway,,,Merton,https://polkatheatre.com/home/about-us/contact-us/,48008566,E09000024,Abbey,E05013810,51.41973108,-0.194975806,525605.6236,170513.9226
Poplar Union,2 Cotall St,,,Tower Hamlets,https://poplarunion.com,6194894,E09000030,Lansbury,E05009325,51.51559973,-0.02298261,537276.0118,181483.0011
Putney Arts Theatre,Ravenna Rd,,,Wandsworth,http://www.putneyartstheatre.org.uk,1.00E+11,E09000032,West Putney,E05014030,51.46128657,-0.220223039,523738.0123,175092.0029
Questor's Theatre,12 Mattock Lane,,,Ealing,http://www.questors.org.uk,12084402,E09000009,Walpole,E05013541,51.51170889,-0.309656624,517396.0115,180552.0043
RADA Studios,16 Chenies St,,,Camden,,5087921,E09000007,Bloomsbury,E05013653,51.52066919,-0.13256009,529659.0111,181847.003
Raindance Rehearsal Studios,10 Craven Street,,,Westminster,https://www.raindance.org/london/,10033627452,E09000033,St James's,E05013806,51.50763226,-0.125372442,530194.8023,180410.0317
Rambert,99 Upper Ground,,,Lambeth,http://www.rambert.org.uk,1.00E+11,E09000022,Waterloo & South Bank,E05014118,51.50617404,-0.113523269,531021.2419,180269.0021
Rambert School Studio Theatre,"St. Margaret's Drive,",Clifton Lodge,,Richmond upon Thames,http://www.rambertschool.org.uk,1.00E+11,E09000027,St Margarets & North Twickenham,E05013785,51.46182116,-0.321764604,516683.0108,174985.0037
Rich Mix,35-47 Bethnal Green Road,,,Tower Hamlets,https://www.richmix.org.uk,6150258,E09000030,Weavers,E05009335,51.52435934,-0.073275203,533761.0116,182364.0029
Richmond and Hillcroft Adult Community College,Parkshot ,,,Richmond upon Thames,https://www.rhacc.ac.uk/contact-rhacc/contact-us,10070711497,E09000027,South Richmond,E05013786,51.46437949,-0.30267477,518002.492,175300.0521
Richmond Upon Thames College,Egerton Road,,,Richmond upon Thames,https://www.rutc.ac.uk,1.00E+11,E09000027,St Margarets & North Twickenham,E05013785,51.45148243,-0.341530616,515336.0169,173804.0034
Rivoli Ballroom,350 Brockley Road,Crofton Park,,Lewisham,https://www.rivoliballroom.com,10090782761,E09000023,Crofton Park,E05013718,51.45526234,-0.037193751,536470.0135,174747.003
Royal Academy of Dance,188 York Road,,,Wandsworth,https://www.royalacademyofdance.org/about-us/venue-hire/,10095440680,E09000032,St Mary's,E05014018,51.46648,-0.17957425,526547.2994,175738.8821
Royal Academy of Dramatic Art (RADA),16-22 Chenies Street,,,Camden,https://www.rada.ac.uk,5136140,E09000007,Bloomsbury,E05013653,51.52088928,-0.13226279,529679.0109,181872.0036
Rudolf  Steiner House,Eurythmy Room ,"Top flloor,  35 Park Road",,Westminster,https://www.rsh.anth.org.uk/eurythmy-room/,2.00E+11,E09000033,Regent's Park,E05013805,51.524896,-0.16058095,527703.2677,182267.7999
Sadler's Wells Theatre,177 Rosebery Ave,,,Islington,http://www.sadlerswells.com,5300080047,E09000019,Clerkenwell,E05013702,51.52942925,-0.106264614,531458.0124,182868.0012
Shoreditch Town Hall,380 Old Street,,,Hackney,http://shoreditchtownhall.com/event-space-hire/venue-specification/large-committee-room,1.00E+11,E09000012,Hoxton East & Shoreditch,E05009377,51.52667619,-0.079102613,533350.012,182611.0017
Shrewsbury House,Shrewsbury House Community Centre,", Bushmoor Crescent",Shooters Hill ,Greenwich,https://shrewsburyhouse.org/index.php,1.00E+11,E09000011,Shooters Hill,E05014089,51.473519,0.072959352,544065.1509,176987.9435
Silver Building (Projekt),60 Dock road,London,,Newham,http://thisisprojekt.com/silverbuilding,10008985422,E09000025,Royal Victoria,E05013923,51.504762,0.017112899,540091.1371,180353.824
Siobhan Davies Studios,85 St. George’s Road,Elephant & Castle,,Southwark,http://www.siobhandavies.com,10009805291,E09000028,St George's,E05011114,51.49606,-0.105329064,531619.013,179159.0031
Soho Theatre,21 Dean Street,,,Westminster,http://www.sohotheatre.com,1.00E+11,E09000033,West End,E05013808,51.51450305,-0.132740339,529664.0119,181161.002
South London Dance Studios,130 Herne Hil,,,Lambeth,http://southlondondancestudios.co.uk,1.00E+11,E09000022,Herne Hill & Loughborough Junction,E05014104,51.45353404,-0.101490894,532008.012,174437.0023
St Barnabas,35 Shacklewell Row,,,Hackney,http://www.saintbarnabasdalston.org.uk,1.00E+11,E09000012,Shacklewell,E05009382,51.55282748,-0.07149557,533801.0123,185533.0023
Stanley Arts,12 South Norwood Hill,South Norwood,,Croydon,https://stanleyarts.org/venue-hire/,1.00E+11,E09000008,South Norwood,E05011485,51.400257,-0.075329996,533981.2138,168560.0568
Stockroom ,38 Mayton Street,Islington,,Islington,https://www.stockroom.co.uk/,10090266132,E09000019,Finsbury Park,E05013703,51.559213,-0.11597458,530699.1961,186162.618
Stone Nest,136 Shaftesbury Avenue,,,Westminster,http://welshchapel.com,10033599479,E09000033,St James's,E05013806,51.51294648,-0.129301863,529907.0117,180994.0021
Streatham Youth and Community Trust,Wellfield Centre,16 Wellfield Road,London,Lambeth,http://www.syct.org.uk,2.00E+11,E09000022,Streatham Wells,E05014116,51.42965878,-0.127238497,530287.0104,171735.9972
Studio 3 Arts ,Boundary Road,,,Barking and Dagenham,https://www.studio3arts.org.uk/ ,100053573,E09000002,Gascoigne,E05014061,51.530484,0.080289716,544394.1273,183336.8231
Studio 45,115A Brunswick Park Roa,,,Barnet,http://www.studio45.london,200219587,E09000003,Brunswick Park,E05013629,51.62293183,-0.147463783,528336.9507,193192.7025
Studio 68,68 Ewer St,,,Southwark,http://studio68london.net,10090749641,E09000028,Borough & Bankside,E05011095,51.50451752,-0.09864396,532058.5912,180111.5128
Studio 74 LTD,The Hall,St Augustines Avenue,Bromley,Bromley,http://www.studio74dance.co.uk,1.00E+11,E09000006,Bickley & Sundridge,E05013988,51.39012657,0.043384487,542270.012,167657.0018
"Studio K, Richmond Fitness Club",Richmond Station Left,Kew Road,,Richmond upon Thames,http://www.studiokdance.co.uk,10024346023,E09000027,South Richmond,E05013786,51.46347521,-0.301706458,518072.0821,175201.0526
Studio Kew ,Arch 8 Kew Bridge,Kew ,,Richmond upon Thames,https://www.studiokew.co.uk/studio-hire,See notes ,E09000027,Kew,E05013782,51.48622,-0.2876,518992.8378,177753.119
Studio Wayne McGregor,14 East Bay lane,,,Hackney,http://waynemcgregor.com,10008348301,E09000012,Hackney Wick,E05009374,51.54744385,-0.024066959,537105.1115,185022.0728
Sunshine International Arts,209A Coldharbour Ln,,,Lambeth,https://www.sunshineiarts.co.uk/,No UPRN,E09000022,Herne Hill & Loughborough Junction,E05014104,51.46619534,-0.10204378,531933.1156,175843.9377
Sutton Dance Academy,Rose Hill Park,,,Sutton,https://www.better.org.uk,5870040509,E09000029,Sutton North,E05013766,51.37797068,-0.19562163,525675.0105,165869.0044
SW19 Rehearsal studios,62 Weir Road,,,Merton,http://www.sw-19.net,48071997,E09000024,Wimbledon Park,E05013828,51.43756211,-0.190039546,525899.8627,172505.1924
Sylvia Young Theatre Group,1 Nutford Place,,,Westminster,http://www.syts.co.uk/page/default.asp?title=Home&pid=1,1.00E+11,E09000033,Marylebone,E05013801,51.517151,-0.162612043,527584.0119,181403.0033
Tara Studio,356 Garratt Lane,,,Wandsworth,https://www.tara-arts.com,121011012,E09000032,Wandle,E05014026,51.44217585,-0.188430425,525999.012,173021.003
The Annex,7 Fountayne Road,,,Haringey,http://www.theannexspace.com/tohire/,10090478351,E09000014,South Tottenham,E05013599,51.58371267,-0.062495764,534334.0146,188984.0029
The Arts Educational London Schools Theatre,14 Bath Road,,,Hounslow,https://artsed.co.uk,2.00E+11,E09000018,Chiswick Homefields,E05013610,51.49596064,-0.252411694,521410.0122,178894.0023
The Artworks Classrooms, 60a Weston St, London Bridge,,Southwark,https://www.theartworks.london/classrooms/,10094084157,E09000028,London Bridge & West Bermondsey,E05011104,51.50256,-0.085402557,532983.2191,179917.7865
The Bridge ,73 ‚Äì 81 Southwark Bridge Road,,,Southwark,info@thebridge-uk.org,10090748590,E09000028,Borough & Bankside,E05011095,51.50452458,-0.095481917,532278.0113,180118.0025
The Factory,407-409 Hornsey Rd,,,Islington,www.factoryrehearsalstudios.com,5300050786,E09000019,Tollington,E05013712,51.56635036,-0.121756944,530278.0087,186945.9977
The Gate Theatre,11 Pembridge Road,,,Kensington and Chelsea,https://www.gatetheatre.co.uk/?spektrix_bounce=true,217065685,E09000020,Pembridge,E05009400,51.50952947,-0.197663819,525173.0127,180495.0028
The Granville,140 Carlton Vale, South Kilburn,,Brent,https://thegranville.org/venue-hire/,202224307,E09000005,Kilburn,E05013503,51.532724,-0.19739206,525128.2979,183074.7493
The Hope Theatre,207 Upper Street,,,Islington,http://www.thehopetheatre.com,5300094879,E09000019,Laycock,E05013708,51.54325194,-0.103541677,531607.0115,184410.0004
The Meeting Rooms,14 Neal's Yard,,,Camden,http://www.meetingrooms.org.uk,5088433,E09000007,Holborn & Covent Garden,E05013662,51.51456285,-0.126338658,530108.0114,181179.0033
The Michaelis Building,"Froebel College, University of Roehampton",Froebel Lane,,Wandsworth,,10033238647,E09000032,Roehampton,E05014017,51.45610039,-0.247269507,521873.0121,174470.0027
The O2 Centre,255 Finchley Road,,,Camden,https://o2centre.co.uk/your-visit/contact-us,5109050,E09000007,West Hampstead,E05013671,51.54794663,-0.181390376,526196.0101,184795.0024
"The Old Church , Stoke Newington",207B Church Street,,,Hackney,http://theoldchurch.org.uk,1.00E+11,E09000012,Clissold,E05009369,51.56041201,-0.084880748,532851.0123,186352.0026
The Peel ,Three Corners Centre,Northampton Road,,Islington,http://www.peelinstitute.org.uk,10090264827,E09000019,Clerkenwell,E05013702,51.5253558,-0.106837354,531430.0121,182414.0019
"The Pit, Barbican Centre",1C Silk St,,,City of London,http://www.barbican.org.uk/theatre,95512046,E09000001,Cripplegate,E05009302,51.51996227,-0.094104542,532328.8726,181837.1679
The Place Theatre,17 Dukes Road,,London,Camden,http://www.theplace.org.uk,5156460,E09000007,Bloomsbury,E05013653,51.52750935,-0.128401995,529928.0116,182615.0031
The Room,33 Holcombe Road,,,Haringey,http://the-room.org.uk/contact/,1.00E+11,E09000014,Tottenham Hale,E05013602,51.59279163,-0.065011594,534133.0139,189989.0008
The Saw Swee Hock Centre - Weston Studio,1 Portugal Street,,,Westminster,https://sawsweehockcentre.com,10033621876,E09000033,St James's,E05013806,51.51463833,-0.117572622,530716.0117,181203.0028
The Shala,Third Floor,"537, Norwood Road",West Norwood,Lambeth,http://www.theshalalondon.com,1.00E+11,E09000022,West Dulwich,E05014119,51.43454753,-0.102997455,531958.0118,172323.0015
The Space,269 West Ferry Road,,,Tower Hamlets,http://www.space.org.uk,6060149,E09000030,Island Gardens,E05009324,51.49216667,-0.024198973,537262.0114,178874.9999
The Tabard Theatre,2 Bath Road,,,Hounslow,http://www.tabardtheatre.co.uk,2.00E+11,E09000018,Chiswick Homefields,E05013610,51.49569249,-0.254641421,521255.9523,178860.4923
The Tabernacle Trust,THE TABERNACLE 34-35,POWIS SQUARE,,Kensington and Chelsea,https://www.tabernaclew11.com,217070132,E09000020,Colville,E05009392,51.51696816,-0.201881407,524860.0126,181315.0026
The Tramshed,41 Woolwich New Road,,,Greenwich,https://www.tramshed.org/,1.00E+11,E09000011,Woolwich Arsenal,E05014092,51.489729,0.068609625,543712.1405,178781.9408
The Umbrella Rooms,241 Shaftesbury Avenue ,,,Camden,https://www.theumbrellarooms.com/rooms,5160269,E09000007,Holborn & Covent Garden,E05013662,51.516785,-0.12653236,530088.2425,181425.7645
The Warehouse Dance and Fitness Studio,1st Floor,173-177 Stafford Road,Wallington,Sutton,https://www.thewarehousedancestudios.co.uk/studio-hire-parties,5870090992,E09000029,Wallington South,E05013771,51.35934,-0.13878086,529683.2444,163896.0814
The Young Vic,66 The Cut,,,Lambeth,https://www.youngvic.org,1.00E+11,E09000022,Waterloo & South Bank,E05014118,51.50327691,-0.107291849,531462.0116,179958.0032
Theatre Deli,2 Finsbury Avenue,,,City of London,https://www.theatredeli.co.uk/,1.00E+11,E09000001,Bishopsgate,E05009292,51.519961,-0.08487465,532969.1944,181853.7575
Theatre Peckham,221 Havil Street,,,Southwark,https://www.theatrepeckham.co.uk,10093342877,E09000028,St Giles,E05011115,51.47449519,-0.082758591,533248.4511,176801.7832
"Theatre Royal, Stratford East",Gerry Raffles Square,,,Newham,http://www.stratfordeast.com/whats-on/,10009003230,E09000025,Stratford,E05013924,51.54255806,0.001000881,538858.0112,184526.0017
Theatre Utopia,1 Matthews Yard,,,Croydon,http://www.matthewsyard.com/venue/theatre-utopia/,10090382144,E09000008,Fairfield,E05011468,51.37216106,-0.101094936,532270.012,165389.0016
Theatro Technis,26 Crowndale Road,,,Camden,http://www.theatrotechnis.com,5061419,E09000007,St Pancras & Somers Town,E05013669,51.53549592,-0.134678304,529470.0118,183492.0031
Trafalgar Studios (previously the Whitehall),14 Whitehall,,,Westminster,http://trafalgarentertainment.com,1.00E+11,E09000033,St James's,E05013806,51.50663365,-0.127615185,530042.0124,180295.0018
Trinity Laban / Laban Theatre,Laban Building,30 Creekside,,Greenwich,https://www.trinitylaban.ac.uk/whats-on/dance-events,1.00E+11,E09000011,Greenwich Creekside,E05014080,51.48005383,-0.020503156,537555.0112,177535.0022
TripSpace Dance,ARCH 339,ACTON MEWS,,Hackney,http://www.tripspace.co.uk,1.00E+11,E09000012,Haggerston,E05009375,51.53679364,-0.075864571,533545.0092,183742.001
Twist Class Studios,95A Dartmouth Road,,,Lewisham,http://twiststudios.co.uk,207182000,E09000023,Forest Hill,E05013722,51.43614,-0.05497,535291.4836,172587.6556
Ugly Duck,49 Tanner Street,,,Southwark,http://uglyduck.org.uk,10093342879,E09000028,London Bridge & West Bermondsey,E05011104,51.50010756,-0.077915791,533509.9717,179658.7014
Unicorn Theatre,147 Tooley Street,,,Southwark,unicorn theatre,10009804074,E09000028,London Bridge & West Bermondsey,E05011104,51.50384193,-0.080639895,533310.012,180069.0001
Union Chapel,19 Compton Terrance,,,Islington,http://www.unionchapel.org.uk,5300023057,E09000019,Laycock,E05013708,51.54475878,-0.102743469,531658.0101,184579.0015
Union Theatre,204 Union Street,,,Southwark,https://www.unicorntheatre.com,2.00E+11,E09000028,Borough & Bankside,E05011095,51.50375651,-0.101911697,531834.0114,180021.003
Upstairs at the Gatehouse,1 North Road,,,Haringey,http://www.upstairsatthegatehouse.com,1.00E+11,E09000014,Highgate,E05013592,51.5717955,-0.150365124,528280.012,187501.0016
Urdang 2,259-263 Goswell Road,,,Islington,https://theurdang.london/about-us/our-facilities/,10090263567,E09000019,St Peter's & Canalside,E05013711,51.52995272,-0.103042176,531680.0123,182932.0026
Urdang Academy,Old Finsbury Town Hall,Roseberry Ave,,Islington,http://www.theurdangacademy.com,5300079780,E09000019,Clerkenwell,E05013702,51.5269418,-0.108155534,531334.0123,182588.0013
Ursuline School,11 Crescent Rd,,,Merton,http://www.ursulinehigh.merton.sch.uk,48130420,E09000024,Raynes Park,E05013823,51.41508498,-0.223383704,523643.0121,169949.0022
Uxbridge College,34 College Way,,,Hillingdon,https://www.uxbridge.ac.uk,10003002623,E09000017,Wood End,E05013582,51.5162788,-0.411430057,510323.017,180902.0003
Vatican Dance and Recording Studio,Railway Arch 190,Bancroft Road,,Tower Hamlets,https://www.thevatican.biz/dance-studio,6036377,E09000030,Bethnal Green,E05009317,51.525871,-0.047894289,535517.1309,182578.8076
Vaudeville Theatre,404 Strand,,,Westminster,https://www.nimaxtheatres.com/vaudeville-theatre/,10033544051,E09000033,St James's,E05013806,51.51034645,-0.122476552,530388.0119,180717.0027
Vinters Studios,1b Sunnyhill Road,,,Lambeth,http://www.vintersstudios.co.uk,1.00E+11,E09000022,Streatham Wells,E05014116,51.43094452,-0.128912273,530167.0102,171875.9979
Wallington High School for Girls,129 Woodcote Rd,,,Sutton,http://www.wallingtongirls.sutton.sch.uk,5870087159,E09000029,Wallington South,E05013771,51.34799637,-0.148836393,529015.0129,162617.0021
Watermans Arts Centre,40 High Stree,,,Hounslow,https://www.watermans.org.uk,1.00E+11,E09000018,Brentford East,E05013607,51.48576836,-0.298042371,518269.0142,177685.9997
West Dulwich Health and Wellbeing Centre,1 Park Hall Road,,,Lambeth,https://aspirewellbeing.org,1.00E+11,E09000022,West Dulwich,E05014119,51.4351669,-0.095720482,532462.0117,172405.0017
West London College,7 Gliddon Road,,,Hammersmith and Fulham,https://www.wlc.ac.uk/contact-us/hammersmith-fulham-college,34141735,E09000013,Avonmore,E05013734,51.49186609,-0.214005169,524087.0127,178503.0034
West London School of Dance,Village Hall Dance Studio,58 Bulwer Street,,Hammersmith and Fulham,https://www.westlondonschoolofdance.co.uk/studio-hire,34039610,E09000013,Shepherd's Bush Green,E05013748,51.50574272,-0.224139981,523346.0103,180029.0002
West London School of Dance,25 Bulwer Street,,,Hammersmith and Fulham,https://www.westlondonschoolofdance.co.uk,34039599,E09000013,Shepherd's Bush Green,E05013748,51.50548497,-0.223746535,523374.0105,180001.0004
West London University,St Mary's Rd,,,Ealing,http://www.uwl.ac.uk,12153715,E09000009,Ealing Common,E05013521,51.50656547,-0.304688388,517754.0126,179988.0032
Westminster Kingsway College Theatre,211 Gray's Inn Road,,,Camden,http://www.westking.ac.uk/subject/performing-arts/,5155126,E09000007,King's Cross,E05013666,51.52690563,-0.118767654,530598.0119,182565.0029
Westminster St Peter's Eaton Square Primary School,2 Lower Belgrave Stree,,,Westminster,http://www.stpeaton.org.uk,1.00E+11,E09000033,Knightsbridge & Belgravia,E05013797,51.49612109,-0.146861589,528736.0134,179092.0034
Wilton's Music Hall,1 Graces Alley,,,Tower Hamlets,http://www.wiltons.org.uk,6006845,E09000030,Whitechapel,E05009336,51.51061305,-0.066937948,534241.012,180847.0031
Wimbledon Dance Academy,71 Woodside,,,Merton,http://wimbledondanceacademy.co.uk,48105415,E09000024,Hillside,E05013816,51.42302561,-0.209209793,524607.0109,170856.004
Windmill Studio,106 - 106A Pembroke Road,,,Hillingdon,http://www.thewindmillstudio.com,1.00E+11,E09000017,Ruislip Manor,E05013578,51.57342523,-0.414128084,509998.0133,187253.0087
Woolwich Works ,The Fireworks Factory,11 No. 1 Street,Royal Arsenal,Greenwich,https://www.woolwich.works/venue-hire,10010229615,E09000011,Woolwich Arsenal,E05014092,51.494442,0.069067917,543729.1373,179306.9222
YMCA Club,112 Great Russell Street,,,Camden,https://www.ymcaclub.co.uk/facilities/hire,5040794,E09000007,Bloomsbury,E05013653,51.51728914,-0.130377827,529820.0115,181475.0029
